{
"type": "FeatureCollection",
"name": "altres_punts_260126",
"crs": { "type": "name", "properties": { "name": "urn:ogc:def:crs:OGC:1.3:CRS84" } },
"xy_coordinate_resolution": 1e-15,
"features": [
{ "type": "Feature", "properties": { "fid": 3, "nom": "Museu de la Mar", "estat": "molt bo", "data_edicio": "2026-01-23T21:27:08.214Z", "Tipus": "punt d'interès", "Imatge": "https://museumaritim.conselldemallorca.es/documents/867102/1036675/20201020_museu-mar-soller_-1.jpg/79d64d17-5e6d-2b53-2bca-1be350b07381?t=1603183480840", "territori": "Mallorca", "descripcio": null, "link": "https://museumaritim.conselldemallorca.es/museu/-/asset_publisher/zhxGnYnD00Dd/content/museu-de-la-mar-s%25C3%25B3ller/774813", "visibilitat": true, "id_talaia": 3, "simbologia": "altres - participen", "municipi": "Sóller", "horari_encesa": "matí", "senyal": null }, "geometry": { "type": "Point", "coordinates": [ 2.691535596922676, 39.797843514174261 ] } },
{ "type": "Feature", "properties": { "fid": 25, "nom": "Torre des Puig de sa Moneda", "estat": "bo", "data_edicio": "2026-01-23T22:09:24.899Z", "Tipus": "punt d'interès", "Imatge": null, "territori": "Mallorca", "descripcio": null, "link": null, "visibilitat": true, "id_talaia": 25, "simbologia": "altres - participen", "municipi": "Valldemossa", "horari_encesa": "matí i capvespre", "senyal": null }, "geometry": { "type": "Point", "coordinates": [ 2.581680809638042, 39.706462767325498 ] } },
{ "type": "Feature", "properties": { "fid": 57, "nom": "Torre de Menut", "estat": "bo", "data_edicio": "2026-01-23T19:57:39.173Z", "Tipus": "possessió", "Imatge": "https://www.castillosnet.org//datos/baleares/escorca/lluc/torre_menut//PM-CAS-041-1416001.jpg", "territori": "Mallorca", "descripcio": null, "link": "https://www.castillosnet.org//monumento.php?r=PM-CAS-041&seo=", "visibilitat": true, "id_talaia": 58, "simbologia": "altres - participen", "municipi": "Escorca", "horari_encesa": "matí i capvespre", "senyal": null }, "geometry": { "type": "Point", "coordinates": [ 2.899846632686426, 39.830535940679248 ] } },
{ "type": "Feature", "properties": { "fid": 64, "nom": "Campanar del Santuari de Lluc", "estat": "bo", "data_edicio": "2026-01-23T23:07:21.825Z", "Tipus": "campanar", "Imatge": "https://upload.wikimedia.org/wikipedia/commons/thumb/3/37/18-11-01-Mallorca-Lluc-DJI_0556-0558-HDR.jpg/1280px-18-11-01-Mallorca-Lluc-DJI_0556-0558-HDR.jpg", "territori": "Mallorca", "descripcio": null, "link": "https://ca.wikipedia.org/wiki/Santuari_de_Lluc", "visibilitat": true, "id_talaia": 65, "simbologia": "altres - participen", "municipi": "Escorca", "horari_encesa": "matí i capvespre", "senyal": "Sense pirotècnia" }, "geometry": { "type": "Point", "coordinates": [ 2.88472845832816, 39.822599481454546 ] } },
{ "type": "Feature", "properties": { "fid": 93, "nom": "Puig de Santa Magdalena", "estat": "molt bo", "data_edicio": "2026-01-23T23:29:50.552Z", "Tipus": "punt d'interès", "Imatge": null, "territori": "Mallorca", "descripcio": null, "link": null, "visibilitat": true, "id_talaia": 94, "simbologia": "altres - participen", "municipi": "Inca", "horari_encesa": "capvespre", "senyal": null }, "geometry": { "type": "Point", "coordinates": [ 2.956991717359039, 39.728827250798048 ] } },
{ "type": "Feature", "properties": { "fid": 108, "nom": "Santuari de Bonany", "estat": "molt bo", "data_edicio": "2026-01-24T09:53:29.985Z", "Tipus": "punt d'interès", "Imatge": null, "territori": "Mallorca", "descripcio": null, "link": null, "visibilitat": null, "id_talaia": null, "simbologia": "altres - participen", "municipi": "Petra", "horari_encesa": "matí i capvespre", "senyal": null }, "geometry": { "type": "Point", "coordinates": [ 3.1159985, 39.6136632 ] } },
{ "type": "Feature", "properties": { "fid": 109, "nom": "Sagrat Cor de Jesús", "estat": "--", "data_edicio": "2026-01-24T09:56:10.356Z", "Tipus": "punt d'interès", "Imatge": null, "territori": "Mallorca", "descripcio": null, "link": null, "visibilitat": false, "id_talaia": null, "simbologia": "altres - participen", "municipi": "Esporles", "horari_encesa": "matí i capvespre", "senyal": null }, "geometry": { "type": "Point", "coordinates": [ 2.567384, 39.6630913 ] } },
{ "type": "Feature", "properties": { "fid": 110, "nom": "Puig de Sant Salvador", "estat": "molt bo", "data_edicio": "2026-01-26T20:57:46.909Z", "Tipus": "punt d'interès", "Imatge": null, "territori": "Mallorca", "descripcio": null, "link": null, "visibilitat": false, "id_talaia": null, "simbologia": "altres - participen", "municipi": "Felanitx", "horari_encesa": "matí i capvespre", "senyal": null }, "geometry": { "type": "Point", "coordinates": [ 3.188344244676951, 39.454336784654437 ] } },
{ "type": "Feature", "properties": { "fid": 111, "nom": "Santuari de Cura", "estat": "molt bo", "data_edicio": "2026-01-24T09:55:38.744Z", "Tipus": "punt d'interès", "Imatge": null, "territori": "Mallorca", "descripcio": null, "link": null, "visibilitat": false, "id_talaia": null, "simbologia": "altres - participen", "municipi": "Algaida", "horari_encesa": "matí", "senyal": null }, "geometry": { "type": "Point", "coordinates": [ 2.9258281, 39.5272875 ] } },
{ "type": "Feature", "properties": { "fid": 112, "nom": "Puig de Galatzó", "estat": "--", "data_edicio": "2026-01-23T22:19:11.395Z", "Tipus": "punt d'interès", "Imatge": null, "territori": "Mallorca", "descripcio": null, "link": null, "visibilitat": false, "id_talaia": null, "simbologia": "altres - participen", "municipi": "Calvià", "horari_encesa": "matí i capvespre", "senyal": null }, "geometry": { "type": "Point", "coordinates": [ 2.483333, 39.633333 ] } },
{ "type": "Feature", "properties": { "fid": 113, "nom": "Ermita de Crist Rei", "estat": "molt deteriorat", "data_edicio": "2026-01-24T09:56:50.716Z", "Tipus": "punt d'interès", "Imatge": null, "territori": "Mallorca", "descripcio": null, "link": null, "visibilitat": false, "id_talaia": null, "simbologia": "altres - participen", "municipi": "Selva", "horari_encesa": "matí i capvespre", "senyal": null }, "geometry": { "type": "Point", "coordinates": [ 2.8968652, 39.7471655 ] } },
{ "type": "Feature", "properties": { "fid": 114, "nom": "Puig de Sant Nofre", "estat": "--", "data_edicio": "2026-01-23T22:19:14.052Z", "Tipus": "punt d'interès", "Imatge": null, "territori": "Mallorca", "descripcio": null, "link": null, "visibilitat": false, "id_talaia": null, "simbologia": "altres - participen", "municipi": "Sant Joan", "horari_encesa": "matí i capvespre", "senyal": null }, "geometry": { "type": "Point", "coordinates": [ 3.0491486, 39.6171325 ] } },
{ "type": "Feature", "properties": { "fid": 115, "nom": "Puig de Maria", "estat": "bo", "data_edicio": "2026-01-24T09:59:07.408Z", "Tipus": "punt d'interès", "Imatge": null, "territori": "Mallorca", "descripcio": null, "link": null, "visibilitat": false, "id_talaia": null, "simbologia": "altres - participen", "municipi": "Pollença", "horari_encesa": "matí i capvespre", "senyal": null }, "geometry": { "type": "Point", "coordinates": [ 3.022219, 39.869047 ] } },
{ "type": "Feature", "properties": { "fid": 116, "nom": "Talaiot des Racons", "estat": "bo", "data_edicio": "2026-01-24T09:59:58.428Z", "Tipus": "talaiot", "Imatge": null, "territori": "Mallorca", "descripcio": null, "link": null, "visibilitat": false, "id_talaia": null, "simbologia": "altres - participen", "municipi": "Llubí", "horari_encesa": "matí", "senyal": null }, "geometry": { "type": "Point", "coordinates": [ 3.0072649, 39.6924594 ] } },
{ "type": "Feature", "properties": { "fid": 117, "nom": "Talaiot de na Pol", "estat": "bo", "data_edicio": "2026-01-24T10:00:45.799Z", "Tipus": "talaiot", "Imatge": null, "territori": "Mallorca", "descripcio": null, "link": null, "visibilitat": false, "id_talaia": null, "simbologia": "altres - participen", "municipi": "Sant Llorenç des Cardassar", "horari_encesa": "matí i capvespre", "senyal": null }, "geometry": { "type": "Point", "coordinates": [ 3.3669773, 39.5806657 ] } },
{ "type": "Feature", "properties": { "fid": 118, "nom": "Talaiot de na Nova", "estat": "bo", "data_edicio": "2026-01-23T19:57:39.261Z", "Tipus": "talaiot", "Imatge": null, "territori": "Mallorca", "descripcio": null, "link": null, "visibilitat": false, "id_talaia": null, "simbologia": "altres - participen", "municipi": "Santanyí", "horari_encesa": "matí i capvespre", "senyal": null }, "geometry": { "type": "Point", "coordinates": [ 3.1240105, 39.3204023 ] } },
{ "type": "Feature", "properties": { "fid": 119, "nom": "Talaiot de Son Fred", "estat": "bo", "data_edicio": "2026-01-23T19:57:39.263Z", "Tipus": "talaiot", "Imatge": null, "territori": "Mallorca", "descripcio": null, "link": null, "visibilitat": false, "id_talaia": null, "simbologia": "altres - participen", "municipi": "Sencelles", "horari_encesa": "matí i capvespre", "senyal": null }, "geometry": { "type": "Point", "coordinates": [ 2.911956, 39.65867 ] } },
{ "type": "Feature", "properties": { "fid": 120, "nom": "Talaiot de Son Fornés", "estat": "bo", "data_edicio": "2026-01-24T10:01:35.920Z", "Tipus": "talaiot", "Imatge": null, "territori": "Mallorca", "descripcio": null, "link": null, "visibilitat": false, "id_talaia": null, "simbologia": "altres - participen", "municipi": "Montuïri", "horari_encesa": "matí", "senyal": null }, "geometry": { "type": "Point", "coordinates": [ 2.967038, 39.584028 ] } },
{ "type": "Feature", "properties": { "fid": 121, "nom": "Campanar de La Seu", "estat": "molt bo", "data_edicio": "2026-01-24T10:02:52.566Z", "Tipus": "campanar", "Imatge": "https://www.eltemps.cat/imatges/articles/page-1416255750.jpg", "territori": "Mallorca", "descripcio": null, "link": "https://ca.wikipedia.org/wiki/Catedral_de_Mallorca", "visibilitat": false, "id_talaia": null, "simbologia": "altres - participen", "municipi": "Palma", "horari_encesa": "matí i capvespre", "senyal": "Sense pirotècnia" }, "geometry": { "type": "Point", "coordinates": [ 2.6484531, 39.5677875 ] } },
{ "type": "Feature", "properties": { "fid": 122, "nom": "Campanar de Binissalem", "estat": "bo", "data_edicio": "2026-01-24T10:05:32.902Z", "Tipus": "campanar", "Imatge": null, "territori": "Mallorca", "descripcio": null, "link": null, "visibilitat": false, "id_talaia": null, "simbologia": "altres - participen", "municipi": "Binissalem", "horari_encesa": "matí", "senyal": null }, "geometry": { "type": "Point", "coordinates": [ 2.8419181, 39.6890051 ] } },
{ "type": "Feature", "properties": { "fid": 123, "nom": "Campanar de Calonge", "estat": "bo", "data_edicio": "2026-01-23T19:57:39.272Z", "Tipus": "campanar", "Imatge": null, "territori": "Mallorca", "descripcio": null, "link": null, "visibilitat": false, "id_talaia": null, "simbologia": "altres - participen", "municipi": "Santanyí", "horari_encesa": "matí i capvespre", "senyal": null }, "geometry": { "type": "Point", "coordinates": [ 3.2032344, 39.4000625 ] } },
{ "type": "Feature", "properties": { "fid": 124, "nom": "Campanar de Caimari", "estat": "bo", "data_edicio": "2026-01-24T10:06:27.188Z", "Tipus": "campanar", "Imatge": null, "territori": "Mallorca", "descripcio": null, "link": null, "visibilitat": false, "id_talaia": null, "simbologia": "altres - participen", "municipi": "Selva", "horari_encesa": "capvespre", "senyal": null }, "geometry": { "type": "Point", "coordinates": [ 2.9038281, 39.7708875 ] } },
{ "type": "Feature", "properties": { "fid": 125, "nom": "Campanar d'Alaró", "estat": "bo", "data_edicio": "2026-01-24T10:06:43.026Z", "Tipus": "campanar", "Imatge": null, "territori": "Mallorca", "descripcio": null, "link": null, "visibilitat": false, "id_talaia": null, "simbologia": "altres - no participen", "municipi": "Alaró", "horari_encesa": "no participa", "senyal": null }, "geometry": { "type": "Point", "coordinates": [ 2.78933333333333, 39.705638888888885 ] } },
{ "type": "Feature", "properties": { "fid": 126, "nom": "Campanar d'Orient", "estat": "bo", "data_edicio": "2026-01-24T10:07:07.890Z", "Tipus": "campanar", "Imatge": null, "territori": "Mallorca", "descripcio": null, "link": null, "visibilitat": false, "id_talaia": null, "simbologia": "altres - no participen", "municipi": "Bunyola", "horari_encesa": "no participa", "senyal": null }, "geometry": { "type": "Point", "coordinates": [ 2.7596306, 39.7343152 ] } },
{ "type": "Feature", "properties": { "fid": 127, "nom": "Campanar d'Estellencs", "estat": "bo", "data_edicio": "2026-01-23T19:57:39.279Z", "Tipus": "campanar", "Imatge": null, "territori": "Mallorca", "descripcio": null, "link": null, "visibilitat": false, "id_talaia": null, "simbologia": "altres - participen", "municipi": "Estellencs", "horari_encesa": "matí i capvespre", "senyal": null }, "geometry": { "type": "Point", "coordinates": [ 2.4811265, 39.6534687 ] } },
{ "type": "Feature", "properties": { "fid": 128, "nom": "Campanar de Moscari", "estat": "bo", "data_edicio": "2026-01-23T19:57:39.281Z", "Tipus": "campanar", "Imatge": null, "territori": "Mallorca", "descripcio": null, "link": null, "visibilitat": false, "id_talaia": null, "simbologia": "altres - participen", "municipi": "Selva", "horari_encesa": "matí i capvespre", "senyal": null }, "geometry": { "type": "Point", "coordinates": [ 2.9352922, 39.7651612 ] } },
{ "type": "Feature", "properties": { "fid": 129, "nom": "Plaça de Maria de la Salut", "estat": "--", "data_edicio": "2026-01-24T10:08:17.462Z", "Tipus": "punt d'interès", "Imatge": null, "territori": "Mallorca", "descripcio": null, "link": null, "visibilitat": false, "id_talaia": null, "simbologia": "altres - participen", "municipi": "Maria de la Salut", "horari_encesa": "matí i capvespre", "senyal": null }, "geometry": { "type": "Point", "coordinates": [ 3.075236735413259, 39.666107241722742 ] } },
{ "type": "Feature", "properties": { "fid": 130, "nom": "Campanar de Santa Eugènia", "estat": "bo", "data_edicio": "2026-01-24T10:09:41.523Z", "Tipus": "campanar", "Imatge": null, "territori": "Mallorca", "descripcio": null, "link": null, "visibilitat": false, "id_talaia": null, "simbologia": "altres - participen", "municipi": "Santa Eugènia", "horari_encesa": "capvespre", "senyal": null }, "geometry": { "type": "Point", "coordinates": [ 2.8372969, 39.62218750000001 ] } },
{ "type": "Feature", "properties": { "fid": 131, "nom": "Campanar de Muro", "estat": "bo", "data_edicio": "2026-01-23T19:57:39.287Z", "Tipus": "campanar", "Imatge": null, "territori": "Mallorca", "descripcio": null, "link": null, "visibilitat": false, "id_talaia": null, "simbologia": "altres - participen", "municipi": "Muro", "horari_encesa": "matí i capvespre", "senyal": null }, "geometry": { "type": "Point", "coordinates": [ 3.0569844, 39.7369375 ] } },
{ "type": "Feature", "properties": { "fid": 132, "nom": "Campanar de Costitx", "estat": "bo", "data_edicio": "2026-01-24T10:10:33.639Z", "Tipus": "campanar", "Imatge": null, "territori": "Mallorca", "descripcio": null, "link": null, "visibilitat": false, "id_talaia": null, "simbologia": "altres - participen", "municipi": "Costitx", "horari_encesa": "capvespre", "senyal": null }, "geometry": { "type": "Point", "coordinates": [ 2.950161396819321, 39.657467127888687 ] } },
{ "type": "Feature", "properties": { "fid": 133, "nom": "Campanar de Campanet", "estat": "bo", "data_edicio": "2026-01-23T19:57:39.290Z", "Tipus": "campanar", "Imatge": null, "territori": "Mallorca", "descripcio": null, "link": null, "visibilitat": false, "id_talaia": null, "simbologia": "altres - participen", "municipi": "Campanet", "horari_encesa": "matí i capvespre", "senyal": null }, "geometry": { "type": "Point", "coordinates": [ 2.9657656, 39.7747125 ] } },
{ "type": "Feature", "properties": { "fid": 134, "nom": "Campanar de Lloret", "estat": "bo", "data_edicio": "2026-01-23T19:57:39.292Z", "Tipus": "campanar", "Imatge": null, "territori": "Mallorca", "descripcio": null, "link": null, "visibilitat": false, "id_talaia": null, "simbologia": "altres - participen", "municipi": "Lloret de Vistalegre", "horari_encesa": "matí i capvespre", "senyal": null }, "geometry": { "type": "Point", "coordinates": [ 2.9754219, 39.6182125 ] } },
{ "type": "Feature", "properties": { "fid": 135, "nom": "Campanar de Deià", "estat": "bo", "data_edicio": "2026-01-24T10:11:22.768Z", "Tipus": "campanar", "Imatge": null, "territori": "Mallorca", "descripcio": null, "link": null, "visibilitat": false, "id_talaia": null, "simbologia": "altres - no participen", "municipi": "Deià", "horari_encesa": "no participa", "senyal": null }, "geometry": { "type": "Point", "coordinates": [ 2.6466719, 39.7488375 ] } },
{ "type": "Feature", "properties": { "fid": 136, "nom": "El Calvari", "estat": "bo", "data_edicio": "2026-01-24T10:11:56.568Z", "Tipus": "punt d'interès", "Imatge": null, "territori": "Mallorca", "descripcio": null, "link": null, "visibilitat": false, "id_talaia": null, "simbologia": "altres - participen", "municipi": "Pollença", "horari_encesa": "matí i capvespre", "senyal": null }, "geometry": { "type": "Point", "coordinates": [ 3.0119375, 39.8803125 ] } },
{ "type": "Feature", "properties": { "fid": 138, "nom": "Església Nova de Biniamar", "estat": "bo", "data_edicio": "2026-01-24T10:12:31.245Z", "Tipus": "punt d'interès", "Imatge": null, "territori": "Mallorca", "descripcio": null, "link": null, "visibilitat": false, "id_talaia": null, "simbologia": "altres - participen", "municipi": "Selva", "horari_encesa": "capvespre", "senyal": null }, "geometry": { "type": "Point", "coordinates": [ 2.8731813, 39.7305079 ] } },
{ "type": "Feature", "properties": { "fid": 139, "nom": "Santuari de Sant Honorat", "estat": "bo", "data_edicio": "2026-01-24T10:13:18.328Z", "Tipus": "punt d'interès", "Imatge": null, "territori": "Mallorca", "descripcio": null, "link": null, "visibilitat": false, "id_talaia": null, "simbologia": "altres - participen", "municipi": "Algaida", "horari_encesa": "capvespre", "senyal": null }, "geometry": { "type": "Point", "coordinates": [ 2.9281244, 39.5196879 ] } },
{ "type": "Feature", "properties": { "fid": 140, "nom": "Campanar de Selva", "estat": "bo", "data_edicio": "2026-01-24T10:14:00.349Z", "Tipus": "campanar", "Imatge": null, "territori": "Mallorca", "descripcio": null, "link": null, "visibilitat": false, "id_talaia": null, "simbologia": "altres - participen", "municipi": "Selva", "horari_encesa": "matí", "senyal": null }, "geometry": { "type": "Point", "coordinates": [ 2.901269436776049, 39.755201923726389 ] } },
{ "type": "Feature", "properties": { "fid": 141, "nom": "Campanar de Santa Maria", "estat": "bo", "data_edicio": "2026-01-24T10:14:19.391Z", "Tipus": "campanar", "Imatge": null, "territori": "Mallorca", "descripcio": null, "link": null, "visibilitat": false, "id_talaia": null, "simbologia": "altres - no participen", "municipi": "Santa María del Camí", "horari_encesa": "no participa", "senyal": null }, "geometry": { "type": "Point", "coordinates": [ 2.7797969, 39.647687500000011 ] } },
{ "type": "Feature", "properties": { "fid": 142, "nom": "Església de Vilafranca de Bonany", "estat": "bo", "data_edicio": "2026-01-26T21:01:15.302Z", "Tipus": "punt d'interès", "Imatge": null, "territori": "Mallorca", "descripcio": null, "link": null, "visibilitat": false, "id_talaia": null, "simbologia": "altres - participen", "municipi": "Vilafranca de Bonany", "horari_encesa": "capvespre", "senyal": null }, "geometry": { "type": "Point", "coordinates": [ 3.087460418335274, 39.568035194084437 ] } },
{ "type": "Feature", "properties": { "fid": 143, "nom": "Campanar de Sineu", "estat": "molt bo", "data_edicio": "2026-01-23T19:57:39.308Z", "Tipus": "campanar", "Imatge": null, "territori": "Mallorca", "descripcio": null, "link": null, "visibilitat": false, "id_talaia": null, "simbologia": "altres - participen", "municipi": "Sineu", "horari_encesa": "matí i capvespre", "senyal": null }, "geometry": { "type": "Point", "coordinates": [ 3.0106375, 39.64308470000001 ] } },
{ "type": "Feature", "properties": { "fid": 144, "nom": "Museu de la Mar de Mallorca", "estat": "bo", "data_edicio": "2026-01-24T10:04:32.988Z", "Tipus": "punt d'interès", "Imatge": null, "territori": "Mallorca", "descripcio": null, "link": null, "visibilitat": false, "id_talaia": null, "simbologia": "altres - no participen", "municipi": "Palma", "horari_encesa": "no participa", "senyal": null }, "geometry": { "type": "Point", "coordinates": [ 2.6484346, 39.5666284 ] } },
{ "type": "Feature", "properties": { "fid": 145, "nom": "Molí de Santa Ponça", "estat": "bo", "data_edicio": "2026-01-23T19:57:39.312Z", "Tipus": "punt d'interès", "Imatge": null, "territori": "Mallorca", "descripcio": null, "link": null, "visibilitat": false, "id_talaia": null, "simbologia": "altres - participen", "municipi": "Calvià", "horari_encesa": "matí i capvespre", "senyal": null }, "geometry": { "type": "Point", "coordinates": [ 2.494468778689528, 39.521316761522598 ] } },
{ "type": "Feature", "properties": { "fid": 146, "nom": "Poblat Talaiòtic de s'Illot", "estat": null, "data_edicio": "2026-01-23T19:57:39.314Z", "Tipus": "campanar", "Imatge": null, "territori": "Mallorca", "descripcio": null, "link": null, "visibilitat": false, "id_talaia": null, "simbologia": "altres - participen", "municipi": "Sant Llorenç des Cardassar", "horari_encesa": "matí i capvespre", "senyal": null }, "geometry": { "type": "Point", "coordinates": [ 3.372159, 39.568696099999983 ] } },
{ "type": "Feature", "properties": { "fid": 147, "nom": "Oratori de Santa Llucia", "estat": "bo", "data_edicio": "2026-01-24T10:15:17.801Z", "Tipus": "punt d'interès", "Imatge": null, "territori": "Mallorca", "descripcio": null, "link": null, "visibilitat": false, "id_talaia": null, "simbologia": "altres - participen", "municipi": "Mancor de la Vall", "horari_encesa": "matí", "senyal": null }, "geometry": { "type": "Point", "coordinates": [ 2.8664179, 39.7508298 ] } },
{ "type": "Feature", "properties": { "fid": 148, "nom": "Jaciment de Son Cladera", "estat": "bo", "data_edicio": "2026-01-23T19:57:39.317Z", "Tipus": "talaiot", "Imatge": null, "territori": "Mallorca", "descripcio": null, "link": null, "visibilitat": false, "id_talaia": null, "simbologia": "altres - participen", "municipi": "Sa Pobla", "horari_encesa": "matí i capvespre", "senyal": null }, "geometry": { "type": "Point", "coordinates": [ 3.0096456, 39.8002964 ] } },
{ "type": "Feature", "properties": { "fid": 149, "nom": "Poblat talaiòtic del Pou Celat", "estat": "bo", "data_edicio": "2026-01-24T10:16:22.439Z", "Tipus": "punt d'interès", "Imatge": null, "territori": "Mallorca", "descripcio": null, "link": null, "visibilitat": false, "id_talaia": null, "simbologia": "altres - no participen", "municipi": "Felanitx", "horari_encesa": "no participa", "senyal": null }, "geometry": { "type": "Point", "coordinates": [ 3.0887133, 39.4805082 ] } },
{ "type": "Feature", "properties": { "fid": 150, "nom": "Molí de sa Cabaneta - Museu del Fang", "estat": "molt bo", "data_edicio": "2026-01-26T21:02:01.660Z", "Tipus": "punt d'interès", "Imatge": null, "territori": "Mallorca", "descripcio": null, "link": null, "visibilitat": false, "id_talaia": null, "simbologia": "altres - participen", "municipi": "Marratxí", "horari_encesa": "matí i capvespre", "senyal": null }, "geometry": { "type": "Point", "coordinates": [ 2.74687883942492, 39.621312712628878 ] } },
{ "type": "Feature", "properties": { "fid": 151, "nom": "Llaüt Alzina", "estat": "molt bo", "data_edicio": "2026-01-24T10:18:04.865Z", "Tipus": "vaixell", "Imatge": "https://uh.gsstatic.es/sfAttachPlugin/3272601.jpg", "territori": "Mallorca", "descripcio": null, "link": null, "visibilitat": false, "id_talaia": null, "simbologia": "altres - participen", "municipi": "Badia de Palma", "horari_encesa": "matí i capvespre", "senyal": null }, "geometry": { "type": "Point", "coordinates": [ 2.6564844, 39.5314125 ] } },
{ "type": "Feature", "properties": { "fid": 152, "nom": "Torre de So na Gaiana", "estat": "bo", "data_edicio": "2026-01-24T00:12:14.479Z", "Tipus": "torre o talaia", "Imatge": "http://www.mallorca-torres.de/bilder/gaiana_2_small.jpg", "territori": "Mallorca", "descripcio": null, "link": "https://wowmallorca.com/ca/etnos/238", "visibilitat": false, "id_talaia": null, "simbologia": "altres - participen", "municipi": "Andratx", "horari_encesa": "matí i capvespre", "senyal": null }, "geometry": { "type": "Point", "coordinates": [ 2.417061847175349, 39.576988663204652 ] } },
{ "type": "Feature", "properties": { "fid": 153, "nom": "Jaciment de s'Illot de sa Galera - es Carnatge", "estat": "ruina total", "data_edicio": "2026-01-23T22:20:54.753Z", "Tipus": "punt d'interès", "Imatge": "https://uh.gsstatic.es/sfAttachPlugin/2316979.jpg", "territori": "Mallorca", "descripcio": null, "link": null, "visibilitat": false, "id_talaia": null, "simbologia": "altres - participen", "municipi": "Palma", "horari_encesa": "matí i capvespre", "senyal": null }, "geometry": { "type": "Point", "coordinates": [ 2.70694027548854, 39.534709588452131 ] } },
{ "type": "Feature", "properties": { "fid": 154, "nom": "Son Bielí - Mirador de Ramon Llull", "estat": "bo", "data_edicio": "2026-01-24T10:22:17.845Z", "Tipus": "punt d'interès", "Imatge": null, "territori": "Mallorca", "descripcio": null, "link": null, "visibilitat": false, "id_talaia": null, "simbologia": "altres - participen", "municipi": "Búger", "horari_encesa": "matí", "senyal": null }, "geometry": { "type": "Point", "coordinates": [ 2.987335874973265, 39.757987745332784 ] } },
{ "type": "Feature", "properties": { "fid": 155, "nom": "Plaça de Lloseta", "estat": "--", "data_edicio": "2026-01-24T10:23:37.367Z", "Tipus": "punt d'interès", "Imatge": null, "territori": "Mallorca", "descripcio": null, "link": null, "visibilitat": false, "id_talaia": null, "simbologia": "altres - participen", "municipi": "Lloseta", "horari_encesa": "matí i capvespre", "senyal": null }, "geometry": { "type": "Point", "coordinates": [ 2.867728243261017, 39.718457820932663 ] } },
{ "type": "Feature", "properties": { "fid": 156, "nom": "Torre de ca la Gran Cristiana", "estat": "molt bo", "data_edicio": "2026-01-24T00:05:28.385Z", "Tipus": "fortalesa", "Imatge": null, "territori": "Mallorca", "descripcio": null, "link": null, "visibilitat": false, "id_talaia": null, "simbologia": "altres - participen", "municipi": "Pollença", "horari_encesa": "matí i capvespre", "senyal": null }, "geometry": { "type": "Point", "coordinates": [ 3.016176598643877, 39.87587767162276 ] } },
{ "type": "Feature", "properties": { "fid": 157, "nom": "Torre des Sagrament o de Son Mas", "estat": "molt bo", "data_edicio": "2026-01-24T00:24:45.806Z", "Tipus": "fortalesa", "Imatge": "https://serradetramuntana.net/documents/8935369/13715564/die_balearen_mallorca_son_mas_andratx_lluc_julia.jpg/73a7007f-f26c-6d3e-c295-c8c9671e8ae0?t=1736237065389", "territori": "Mallorca", "descripcio": null, "link": "https://ca.wikipedia.org/wiki/Son_Mas", "visibilitat": false, "id_talaia": null, "simbologia": "altres - participen", "municipi": "Andratx", "horari_encesa": "matí i capvespre", "senyal": null }, "geometry": { "type": "Point", "coordinates": [ 2.424093792851675, 39.576283499358858 ] } },
{ "type": "Feature", "properties": { "fid": 158, "nom": "Coll d'en Sé", "estat": "bo", "data_edicio": "2026-01-26T20:48:23.299Z", "Tipus": "punt d'interès", "Imatge": null, "territori": "Mallorca", "descripcio": null, "link": null, "visibilitat": false, "id_talaia": null, "simbologia": "altres - participen", "municipi": "Sóller", "horari_encesa": "matí i capvespre", "senyal": null }, "geometry": { "type": "Point", "coordinates": [ 2.748265201690253, 39.76468593808103 ] } },
{ "type": "Feature", "properties": { "fid": 159, "nom": "Campanar de Bunyola", "estat": "bo", "data_edicio": "2026-01-24T10:25:27.818Z", "Tipus": "campanar", "Imatge": null, "territori": "Mallorca", "descripcio": null, "link": null, "visibilitat": false, "id_talaia": null, "simbologia": "altres - participen", "municipi": "Bunyola", "horari_encesa": "matí", "senyal": null }, "geometry": { "type": "Point", "coordinates": [ 2.69922829565526, 39.696148303367622 ] } },
{ "type": "Feature", "properties": { "fid": 160, "nom": "Plaça de Consell", "estat": "--", "data_edicio": "2026-01-23T22:21:06.410Z", "Tipus": "punt d'interès", "Imatge": null, "territori": "Mallorca", "descripcio": null, "link": null, "visibilitat": null, "id_talaia": null, "simbologia": "altres - participen", "municipi": "Consell", "horari_encesa": "matí i capvespre", "senyal": null }, "geometry": { "type": "Point", "coordinates": [ 2.813399444549807, 39.668681866855707 ] } },
{ "type": "Feature", "properties": { "fid": 162, "nom": "Pont de Sant Roc", "estat": "molt bo", "data_edicio": "2026-01-24T00:12:47.639Z", "Tipus": "fortalesa", "Imatge": "http://www.menorca.es/documents/Imatges/2647imgpub.jpg", "territori": "Menorca", "descripcio": null, "link": "https://ca.wikipedia.org/wiki/Fitxer:Bunyola.mallorca-1.jpg", "visibilitat": null, "id_talaia": null, "simbologia": "altres - participen", "municipi": "Maó", "horari_encesa": "matí i capvespre", "senyal": null }, "geometry": { "type": "Point", "coordinates": [ 4.262664600640488, 39.88949506861892 ] } },
{ "type": "Feature", "properties": { "fid": 163, "nom": "Mirador de Can Corraca", "estat": "bo", "data_edicio": "2026-01-24T10:26:33.377Z", "Tipus": "punt d'interès", "Imatge": null, "territori": "Mallorca", "descripcio": null, "link": null, "visibilitat": null, "id_talaia": null, "simbologia": "altres - participen", "municipi": "Deià", "horari_encesa": "capvespre", "senyal": null }, "geometry": { "type": "Point", "coordinates": [ 2.645966174504571, 39.749408724766347 ] } },
{ "type": "Feature", "properties": { "fid": 164, "nom": "Talaiot d'es Baulenes", "estat": "bo", "data_edicio": "2026-01-24T10:27:34.334Z", "Tipus": "talaiot", "Imatge": null, "territori": "Mallorca", "descripcio": null, "link": null, "visibilitat": true, "id_talaia": null, "simbologia": "altres - participen", "municipi": "Porreres", "horari_encesa": "matí i capvespre", "senyal": null }, "geometry": { "type": "Point", "coordinates": [ 2.985588513332619, 39.475453488218719 ] } },
{ "type": "Feature", "properties": { "fid": 165, "nom": "Necròpolis de Son Real", "estat": "molt deteriorat", "data_edicio": "2026-01-24T10:28:16.888Z", "Tipus": "talaiot", "Imatge": null, "territori": "Mallorca", "descripcio": null, "link": null, "visibilitat": false, "id_talaia": null, "simbologia": "altres - participen", "municipi": "Santa Margalida", "horari_encesa": "matí i capvespre", "senyal": null }, "geometry": { "type": "Point", "coordinates": [ 3.182260458389705, 39.754997630908413 ] } },
{ "type": "Feature", "properties": { "fid": 166, "nom": "Campanar de Santa Margalida", "estat": "bo", "data_edicio": "2026-01-23T19:57:39.350Z", "Tipus": "campanar", "Imatge": null, "territori": "Mallorca", "descripcio": null, "link": null, "visibilitat": false, "id_talaia": null, "simbologia": "altres - participen", "municipi": "Santa Margalida", "horari_encesa": "matí i capvespre", "senyal": null }, "geometry": { "type": "Point", "coordinates": [ 3.101067215411463, 39.703095467534709 ] } },
{ "type": "Feature", "properties": { "fid": 167, "nom": "Ermita de la Pau, Puig de Son Seguí", "estat": "bo", "data_edicio": "2026-01-23T19:57:39.353Z", "Tipus": "punt d'interès", "Imatge": null, "territori": "Mallorca", "descripcio": null, "link": null, "visibilitat": false, "id_talaia": null, "simbologia": "altres - participen", "municipi": "Santa María del Camí", "horari_encesa": "matí", "senyal": null }, "geometry": { "type": "Point", "coordinates": [ 2.811631911396025, 39.619273909303388 ] } },
{ "type": "Feature", "properties": { "fid": 168, "nom": "Far de Ses Coves Blanques", "estat": "bo", "data_edicio": "2026-01-23T23:41:28.150Z", "Tipus": "punt d'interès", "Imatge": null, "territori": "Pitiüses", "descripcio": null, "link": null, "visibilitat": false, "id_talaia": null, "simbologia": "altres - participen", "municipi": "Sant Antoni de Portmany", "horari_encesa": "matí", "senyal": null }, "geometry": { "type": "Point", "coordinates": [ 1.298268720862905, 38.979447211696659 ] } },
{ "type": "Feature", "properties": { "fid": 177, "nom": "Església Santa Magdalena", "estat": null, "data_edicio": "2026-01-23T19:57:39.371Z", "Tipus": "campanar", "Imatge": null, "territori": "Catalunya", "descripcio": null, "link": null, "visibilitat": null, "id_talaia": null, "simbologia": "altres - participen", "municipi": "Esplugues de Llobregat", "horari_encesa": "capvespre", "senyal": null }, "geometry": { "type": "Point", "coordinates": [ 2.089424244079772, 41.379760321927208 ] } },
{ "type": "Feature", "properties": { "fid": 178, "nom": "Campanar de l'església dels Sants Just i Pastor", "estat": null, "data_edicio": "2026-01-23T19:57:39.372Z", "Tipus": "campanar", "Imatge": null, "territori": "Catalunya", "descripcio": null, "link": null, "visibilitat": null, "id_talaia": null, "simbologia": "altres - participen", "municipi": "Sant Just Desvern", "horari_encesa": "matí i capvespre", "senyal": null }, "geometry": { "type": "Point", "coordinates": [ 2.075859433984411, 41.385971714242331 ] } },
{ "type": "Feature", "properties": { "fid": 179, "nom": "Escenari d’entitats de la Fira de la Candelera, Plaça U d’Octubre", "estat": "--", "data_edicio": "2026-01-23T22:19:16.888Z", "Tipus": "punt d'interès", "Imatge": null, "territori": "Catalunya", "descripcio": null, "link": null, "visibilitat": null, "id_talaia": null, "simbologia": "altres - participen", "municipi": "Molins de Rei", "horari_encesa": "capvespre", "senyal": null }, "geometry": { "type": "Point", "coordinates": [ 2.014368522539401, 41.413542791103119 ] } },
{ "type": "Feature", "properties": { "fid": 187, "nom": "Palau Abacial", "estat": "--", "data_edicio": "2026-01-23T22:19:24.531Z", "Tipus": "punt d'interès", "Imatge": null, "territori": "Catalunya", "descripcio": null, "link": null, "visibilitat": null, "id_talaia": null, "simbologia": "altres - participen", "municipi": "el Pont de Suert", "horari_encesa": "matí", "senyal": null }, "geometry": { "type": "Point", "coordinates": [ 0.739662481223219, 42.407288209796839 ] } },
{ "type": "Feature", "properties": { "fid": 194, "nom": "Col·legiata de Sant Pere d'Àger", "estat": "--", "data_edicio": "2026-01-23T22:19:26.650Z", "Tipus": "punt d'interès", "Imatge": null, "territori": "Catalunya", "descripcio": null, "link": null, "visibilitat": null, "id_talaia": null, "simbologia": "altres - participen", "municipi": "Àger", "horari_encesa": "capvespre", "senyal": null }, "geometry": { "type": "Point", "coordinates": [ 0.761948549660837, 42.004213885114069 ] } },
{ "type": "Feature", "properties": { "fid": 198, "nom": "Tossal de Moradilla", "estat": "--", "data_edicio": "2026-01-23T22:19:29.192Z", "Tipus": "punt d'interès", "Imatge": null, "territori": "Catalunya", "descripcio": null, "link": null, "visibilitat": null, "id_talaia": null, "simbologia": "altres - participen", "municipi": "Lleida", "horari_encesa": "matí", "senyal": null }, "geometry": { "type": "Point", "coordinates": [ 0.709329183672841, 41.619666382625439 ] } },
{ "type": "Feature", "properties": { "fid": 201, "nom": "Plaça de la Vileta", "estat": "--", "data_edicio": "2026-01-23T22:19:32.003Z", "Tipus": "punt d'interès", "Imatge": null, "territori": "Catalunya", "descripcio": null, "link": null, "visibilitat": null, "id_talaia": null, "simbologia": "altres - participen", "municipi": "Torrebesses", "horari_encesa": "capvespre", "senyal": null }, "geometry": { "type": "Point", "coordinates": [ 0.594212968089652, 41.427143883328988 ] } },
{ "type": "Feature", "properties": { "fid": 202, "nom": "Ermita de Sant Jaume", "estat": "--", "data_edicio": "2026-01-23T22:19:34.826Z", "Tipus": "punt d'interès", "Imatge": null, "territori": "Catalunya", "descripcio": null, "link": null, "visibilitat": null, "id_talaia": null, "simbologia": "altres - participen", "municipi": "la Granja d'Escarp", "horari_encesa": "matí", "senyal": null }, "geometry": { "type": "Point", "coordinates": [ 0.340508250977188, 41.406449017747946 ] } },
{ "type": "Feature", "properties": { "fid": 205, "nom": "La Casa del Prat", "estat": "--", "data_edicio": "2026-01-23T22:19:37.360Z", "Tipus": "punt d'interès", "Imatge": null, "territori": "Catalunya", "descripcio": null, "link": null, "visibilitat": null, "id_talaia": null, "simbologia": "altres - participen", "municipi": "Tortosa", "horari_encesa": "matí", "senyal": null }, "geometry": { "type": "Point", "coordinates": [ 0.577262046037263, 40.740737320698841 ] } },
{ "type": "Feature", "properties": { "fid": 214, "nom": "Campanar de Rossell", "estat": "bo", "data_edicio": "2026-01-24T00:16:14.580Z", "Tipus": "campanar", "Imatge": null, "territori": "País Valencià", "descripcio": null, "link": null, "visibilitat": null, "id_talaia": null, "simbologia": "altres - participen", "municipi": "Rossell", "horari_encesa": "capvespre", "senyal": null }, "geometry": { "type": "Point", "coordinates": [ 0.224405472737209, 40.618744233697498 ] } },
{ "type": "Feature", "properties": { "fid": 216, "nom": "Far del Port de Gandia", "estat": "molt bo", "data_edicio": "2026-01-23T22:20:48.016Z", "Tipus": "punt d'interès", "Imatge": null, "territori": "País Valencià", "descripcio": null, "link": null, "visibilitat": null, "id_talaia": null, "simbologia": "altres - participen", "municipi": "Gandia", "horari_encesa": "capvespre", "senyal": null }, "geometry": { "type": "Point", "coordinates": [ -0.144484931794761, 38.995203874592164 ] } },
{ "type": "Feature", "properties": { "fid": 218, "nom": "Els Molinets", "estat": "regular", "data_edicio": "2026-01-23T22:20:32.918Z", "Tipus": "punt d'interès", "Imatge": null, "territori": "País Valencià", "descripcio": null, "link": null, "visibilitat": null, "id_talaia": null, "simbologia": "altres - participen", "municipi": "Pedreguer", "horari_encesa": "matí i capvespre", "senyal": null }, "geometry": { "type": "Point", "coordinates": [ 0.036546283170793, 38.802369665140645 ] } },
{ "type": "Feature", "properties": { "fid": 223, "nom": "Muralles d'Alzira", "estat": "bo", "data_edicio": "2026-01-23T23:11:54.747Z", "Tipus": "fortalesa", "Imatge": null, "territori": "País Valencià", "descripcio": null, "link": null, "visibilitat": null, "id_talaia": null, "simbologia": "altres - participen", "municipi": null, "horari_encesa": "capvespre", "senyal": null }, "geometry": { "type": "Point", "coordinates": [ -0.444102044089789, 39.152795483745116 ] } },
{ "type": "Feature", "properties": { "fid": 224, "nom": "Fuerte de Navidad", "estat": "molt bo", "data_edicio": "2026-01-24T10:30:28.488Z", "Tipus": "fortalesa", "Imatge": null, "territori": "Murcia", "descripcio": null, "link": null, "visibilitat": null, "id_talaia": null, "simbologia": "altres - participen", "municipi": "Cartagena", "horari_encesa": "capvespre", "senyal": null }, "geometry": { "type": "Point", "coordinates": [ -0.985646498862672, 37.585581963094704 ] } },
{ "type": "Feature", "properties": { "fid": 225, "nom": "Ein Arik", "estat": "--", "data_edicio": "2026-01-23T22:17:59.267Z", "Tipus": "punt d'interès", "Imatge": null, "territori": "Cisjordània", "descripcio": null, "link": null, "visibilitat": null, "id_talaia": null, "simbologia": "altres - participen", "municipi": "Ein Arik", "horari_encesa": "matí", "senyal": "Sense pirotècnia" }, "geometry": { "type": "Point", "coordinates": [ 35.143004569473447, 31.9073262038265 ] } },
{ "type": "Feature", "properties": { "fid": 227, "nom": "Mirador de San Nicolás", "estat": "molt bo", "data_edicio": "2026-01-24T10:31:26.741Z", "Tipus": "punt d'interès", "Imatge": null, "territori": "Andalucía", "descripcio": null, "link": null, "visibilitat": null, "id_talaia": null, "simbologia": "altres - participen", "municipi": "Granada", "horari_encesa": "capvespre", "senyal": null }, "geometry": { "type": "Point", "coordinates": [ -3.59267097167404, 37.181075258059153 ] } },
{ "type": "Feature", "properties": { "fid": 228, "nom": "La Farola de Málaga", "estat": "molt bo", "data_edicio": "2026-01-23T22:12:30.945Z", "Tipus": "punt d'interès", "Imatge": null, "territori": "Andalucía", "descripcio": null, "link": null, "visibilitat": null, "id_talaia": null, "simbologia": "altres - participen", "municipi": "Málaga", "horari_encesa": "capvespre", "senyal": null }, "geometry": { "type": "Point", "coordinates": [ -4.414558131463634, 36.714181376072752 ] } },
{ "type": "Feature", "properties": { "fid": 230, "nom": "Ramallah", "estat": "--", "data_edicio": "2026-01-23T22:18:07.275Z", "Tipus": "punt d'interès", "Imatge": null, "territori": "Cisjordània", "descripcio": null, "link": null, "visibilitat": null, "id_talaia": null, "simbologia": "altres - participen", "municipi": "Ramallah", "horari_encesa": "matí", "senyal": null }, "geometry": { "type": "Point", "coordinates": [ 35.19979016558041, 31.901841403896167 ] } },
{ "type": "Feature", "properties": { "fid": 231, "nom": "Port de València", "estat": "molt bo", "data_edicio": "2026-01-23T21:11:48.154Z", "Tipus": "punt d'interès", "Imatge": null, "territori": "País Valencià", "descripcio": null, "link": null, "visibilitat": null, "id_talaia": null, "simbologia": "altres - participen", "municipi": "València", "horari_encesa": "capvespre", "senyal": null }, "geometry": { "type": "Point", "coordinates": [ -0.320220163677258, 39.461725654075821 ] } },
{ "type": "Feature", "properties": { "fid": 232, "nom": "Chefchaouen", "estat": "--", "data_edicio": "2026-01-23T22:20:56.791Z", "Tipus": "punt d'interès", "Imatge": null, "territori": "Marroc", "descripcio": null, "link": null, "visibilitat": null, "id_talaia": null, "simbologia": "altres - participen", "municipi": "Chefchaouen", "horari_encesa": "matí", "senyal": null }, "geometry": { "type": "Point", "coordinates": [ -5.262332495687898, 35.169532372579049 ] } },
{ "type": "Feature", "properties": { "fid": 233, "nom": "Elogio del horizonte", "estat": "molt bo", "data_edicio": "2026-01-23T21:15:00.592Z", "Tipus": "punt d'interès", "Imatge": null, "territori": "Asturies", "descripcio": null, "link": null, "visibilitat": null, "id_talaia": null, "simbologia": "altres - participen", "municipi": "Xixón", "horari_encesa": "matí", "senyal": null }, "geometry": { "type": "Point", "coordinates": [ -5.663025314131944, 43.549010057739764 ] } },
{ "type": "Feature", "properties": { "fid": 234, "nom": "Sa Refinadora", "estat": "bo", "data_edicio": "2026-01-23T21:17:54.642Z", "Tipus": "punt d'interès", "Imatge": null, "territori": "Mallorca", "descripcio": null, "link": null, "visibilitat": null, "id_talaia": null, "simbologia": "altres - participen", "municipi": null, "horari_encesa": "capvespre", "senyal": null }, "geometry": { "type": "Point", "coordinates": [ 2.693463245619618, 39.598283867920117 ] } },
{ "type": "Feature", "properties": { "fid": 235, "nom": "Campanar de Montuïri", "estat": "bo", "data_edicio": "2026-01-23T21:19:30.240Z", "Tipus": "campanar", "Imatge": null, "territori": "Mallorca", "descripcio": null, "link": null, "visibilitat": null, "id_talaia": null, "simbologia": "altres - participen", "municipi": "Montuïri", "horari_encesa": "capvespre", "senyal": null }, "geometry": { "type": "Point", "coordinates": [ 2.981494372124512, 39.567513685101865 ] } },
{ "type": "Feature", "properties": { "fid": 236, "nom": "Campanar de Santa Maria del Pi", "estat": "bo", "data_edicio": "2026-01-24T00:27:38.266Z", "Tipus": "campanar", "Imatge": null, "territori": "Catalunya", "descripcio": null, "link": null, "visibilitat": null, "id_talaia": null, "simbologia": "altres - participen", "municipi": "Barcelona", "horari_encesa": "matí i capvespre", "senyal": null }, "geometry": { "type": "Point", "coordinates": [ 2.174046790290824, 41.381950268625921 ] } },
{ "type": "Feature", "properties": { "fid": 237, "nom": "Mirador de les Malgrats", "estat": "--", "data_edicio": "2026-01-26T21:03:15.323Z", "Tipus": "punt d'interès", "Imatge": null, "territori": "Mallorca", "descripcio": null, "link": null, "visibilitat": null, "id_talaia": null, "simbologia": "altres - participen", "municipi": "Calvià", "horari_encesa": "matí i capvespre", "senyal": null }, "geometry": { "type": "Point", "coordinates": [ 2.459971988932321, 39.49949310052213 ] } }
]
}
