{
"type": "FeatureCollection",
"name": "talaies2_260126",
"crs": { "type": "name", "properties": { "name": "urn:ogc:def:crs:OGC:1.3:CRS84" } },
"xy_coordinate_resolution": 1e-15,
"features": [
{ "type": "Feature", "properties": { "fid": 1, "nom": "Torre Picada", "estat": "bo", "data_edicio": "2026-01-26T20:44:26.565Z", "Tipus": "torre o talaia", "Imatge": "https://estaticos-cdn.prensaiberica.es/clip/892ae280-a861-4bd3-a5a8-16165e8951e3_woman-libre-1200_default_0.webp", "territori": "Mallorca", "descripcio": null, "link": "https://ca.wikipedia.org/wiki/Torre_Picada", "visibilitat": true, "id_talaia": 1, "simbologia": "talaies - participen", "municipi": "Sóller", "horari_encesa": "matí i capvespre", "senyal": null }, "geometry": { "type": "Point", "coordinates": [ 2.697443185780534, 39.806361262744439 ] } },
{ "type": "Feature", "properties": { "fid": 2, "nom": "Torre de na Seca", "estat": "ruina total", "data_edicio": "2026-01-24T00:15:02.575Z", "Tipus": "torre o talaia", "Imatge": "https://www.tuscasasrurales.com/img-guias-viaje/baleares/fornalutx/max/torre-na-seca.jpg", "territori": "Mallorca", "descripcio": null, "link": "https://ca.wikipedia.org/wiki/Torre_de_na_Seca", "visibilitat": true, "id_talaia": 2, "simbologia": "talaies - participen", "municipi": "Fornalutx", "horari_encesa": "matí i capvespre", "senyal": "Sense pirotècnia" }, "geometry": { "type": "Point", "coordinates": [ 2.737931135072674, 39.823726117067743 ] } },
{ "type": "Feature", "properties": { "fid": 4, "nom": "Torre de sa Pedrissa", "estat": "deteriorat", "data_edicio": "2026-01-23T21:30:33.596Z", "Tipus": "torre (port)", "Imatge": "https://media.illesbalears.travel/rrtt-mallorca-torre-sa-pedrissa-img1.jpg", "territori": "Mallorca", "descripcio": null, "link": "https://ca.wikipedia.org/wiki/Torre_de_Sa_Pedrissa", "visibilitat": true, "id_talaia": 4, "simbologia": "talaies - no participen", "municipi": "Deià", "horari_encesa": "no participa", "senyal": null }, "geometry": { "type": "Point", "coordinates": [ 2.635517328809085, 39.76461155445817 ] } },
{ "type": "Feature", "properties": { "fid": 5, "nom": "Torre de Can Palou o de la Mola de Tuent", "estat": "molt bo", "data_edicio": "2026-01-23T21:31:50.498Z", "Tipus": "torre o talaia", "Imatge": "https://i0.wp.com/www.eldiscretoencantodeviajar.com/wp-content/uploads/2017/10/IMG_8688.jpg?w=2000&ssl=1", "territori": "Mallorca", "descripcio": null, "link": "https://ca.wikipedia.org/wiki/Torre_de_sa_Mola_de_Tuent", "visibilitat": true, "id_talaia": 5, "simbologia": "talaies - participen", "municipi": "Escorca", "horari_encesa": "matí i capvespre", "senyal": null }, "geometry": { "type": "Point", "coordinates": [ 2.783425598388788, 39.848356247562748 ] } },
{ "type": "Feature", "properties": { "fid": 6, "nom": "Torre des Forat", "estat": "deteriorat", "data_edicio": "2026-01-23T19:57:39.084Z", "Tipus": "torre (port)", "Imatge": "https://i1.wp.com/bttsdemallorca.files.wordpress.com/2017/04/torre-des-forat-bttersmallorca.jpg?w=472&h=&crop&ssl=1", "territori": "Mallorca", "descripcio": null, "link": "https://ca.wikipedia.org/wiki/Torre_des_Forat", "visibilitat": true, "id_talaia": 6, "simbologia": "talaies - participen", "municipi": "Escorca", "horari_encesa": "matí i capvespre", "senyal": null }, "geometry": { "type": "Point", "coordinates": [ 2.767079258911867, 39.841964642873528 ] } },
{ "type": "Feature", "properties": { "fid": 7, "nom": "Torre de Lluc", "estat": "ruita total", "data_edicio": "2026-01-23T21:37:24.660Z", "Tipus": "torre o talaia", "Imatge": "https://blogger.googleusercontent.com/img/b/R29vZ2xl/AVvXsEg4gzSvM3kHsOSD-tC2EB8h-Up7ZcHao7Wv7DXAkC6l6SSNezlLM93U0_07Wx_3hmn4uwNOZynEOaFTFaIKliX40rFoMLjaqy9TB1OlR5VDReAS0JkOvgDU8mPn_C0hpdN3Fv3ewe9xS-wy/s640/Torre+de+Lluc+3+i+4-9-2012+135.jpg", "territori": "Mallorca", "descripcio": null, "link": "https://ca.wikipedia.org/wiki/Torre_de_Lluc", "visibilitat": true, "id_talaia": 7, "simbologia": "talaies - participen", "municipi": "Escorca", "horari_encesa": "matí i capvespre", "senyal": "Sense pirotècnia" }, "geometry": { "type": "Point", "coordinates": [ 2.838658751334733, 39.864500828860081 ] } },
{ "type": "Feature", "properties": { "fid": 8, "nom": "Torre des Bosc o de sa Calobra", "estat": "molt deteriorat", "data_edicio": "2026-01-26T20:49:39.890Z", "Tipus": "torre (port)", "Imatge": "https://s0.wklcdn.com/image_125/3759315/122822482/78635214Master.jpg", "territori": "Mallorca", "descripcio": null, "link": "https://ca.wikipedia.org/wiki/Torre_des_Bosc", "visibilitat": true, "id_talaia": 8, "simbologia": "talaies - participen", "municipi": "Escorca", "horari_encesa": "matí i capvespre", "senyal": null }, "geometry": { "type": "Point", "coordinates": [ 2.802164795803309, 39.850795746249965 ] } },
{ "type": "Feature", "properties": { "fid": 9, "nom": "Talaia de Son Galceran", "estat": "bo", "data_edicio": "2026-01-23T19:57:39.089Z", "Tipus": "torre o talaia", "Imatge": "https://upload.wikimedia.org/wikipedia/commons/thumb/e/e4/Valldemossa._Torre_de_Son_Galceran_%282%29.jpg/1200px-Valldemossa._Torre_de_Son_Galceran_%282%29.jpg", "territori": "Mallorca", "descripcio": null, "link": "https://ca.wikipedia.org/wiki/Torre_de_Son_Galceran", "visibilitat": true, "id_talaia": 9, "simbologia": "talaies - no participen", "municipi": "Valldemossa", "horari_encesa": "no participa", "senyal": null }, "geometry": { "type": "Point", "coordinates": [ 2.608783923587111, 39.732989848659471 ] } },
{ "type": "Feature", "properties": { "fid": 10, "nom": "Torre de na Pòpia", "estat": "desaparegut", "data_edicio": "2026-01-26T21:45:21.039Z", "Tipus": "torre o talaia", "Imatge": "https://s1.wklcdn.com/image_90/2706578/101328181/66209584Master.jpg", "territori": "Mallorca", "descripcio": null, "link": "https://ca.wikipedia.org/wiki/Torre_de_na_P%C3%B2pia", "visibilitat": true, "id_talaia": 10, "simbologia": "talaies - participen", "municipi": "Andratx", "horari_encesa": "matí i capvespre", "senyal": "Sense pirotècnia" }, "geometry": { "type": "Point", "coordinates": [ 2.317182912984755, 39.586346013816268 ] } },
{ "type": "Feature", "properties": { "fid": 11, "nom": "Talaia de Cala en Basset", "estat": "regular", "data_edicio": "2026-01-23T21:39:32.188Z", "Tipus": "torre o talaia", "Imatge": "https://fitaafita.com/wp-content/uploads/2015/01/SAM_4469.jpg", "territori": "Mallorca", "descripcio": null, "link": "https://ca.wikipedia.org/wiki/Torre_de_Cala_en_Basset", "visibilitat": true, "id_talaia": 11, "simbologia": "talaies - participen", "municipi": "Andratx", "horari_encesa": "matí i capvespre", "senyal": null }, "geometry": { "type": "Point", "coordinates": [ 2.350764429601648, 39.595914730256027 ] } },
{ "type": "Feature", "properties": { "fid": 12, "nom": "Castell de Sant Elm", "estat": "bo", "data_edicio": "2026-01-23T21:40:28.491Z", "Tipus": "torre (port)", "Imatge": "https://visit-andratx.com/wp-content/uploads/2016/12/DSC_9552.jpg", "territori": "Mallorca", "descripcio": null, "link": "https://ca.wikipedia.org/wiki/Castell_de_Sant_Elm_(Mallorca)", "visibilitat": true, "id_talaia": 12, "simbologia": "talaies - participen", "municipi": "Andratx", "horari_encesa": "matí i capvespre", "senyal": null }, "geometry": { "type": "Point", "coordinates": [ 2.356169706400357, 39.576724470037441 ] } },
{ "type": "Feature", "properties": { "fid": 13, "nom": "Talaia d'Albercutx o Major de Pollença", "estat": "bo", "data_edicio": "2026-01-26T20:42:11.438Z", "Tipus": "torre o talaia", "Imatge": "https://estaticos-cdn.prensaiberica.es/clip/3d400cf1-45a9-45cc-9ba0-446f794357d8_16-9-aspect-ratio_default_0.webp", "territori": "Mallorca", "descripcio": null, "link": "https://ca.wikipedia.org/wiki/Talaia_d%27Albercutx", "visibilitat": true, "id_talaia": 13, "simbologia": "talaies - participen", "municipi": "Pollença", "horari_encesa": "matí i capvespre", "senyal": null }, "geometry": { "type": "Point", "coordinates": [ 3.11728785336211, 39.928775988472729 ] } },
{ "type": "Feature", "properties": { "fid": 14, "nom": "Talaia d'Alcúdia", "estat": "ruita total", "data_edicio": "2026-01-23T21:47:56.661Z", "Tipus": "torre o talaia", "Imatge": "https://enviumanacor.com/storage/3509/rsz_1talaia-dalcudia-48.jpg", "territori": "Mallorca", "descripcio": null, "link": "https://ca.wikipedia.org/wiki/Talaia_d%27Alc%C3%BAdia_(torre)", "visibilitat": true, "id_talaia": 14, "simbologia": "talaies - participen", "municipi": "Alcúdia", "horari_encesa": "matí i capvespre", "senyal": null }, "geometry": { "type": "Point", "coordinates": [ 3.173785724474179, 39.866102227614881 ] } },
{ "type": "Feature", "properties": { "fid": 15, "nom": "Torre Major d'Alcúdia o Major del Port", "estat": "bo", "data_edicio": "2026-01-23T21:49:12.100Z", "Tipus": "torre (port)", "Imatge": "https://upload.wikimedia.org/wikipedia/commons/d/d0/Alcanada_torre_alcudia.JPG", "territori": "Mallorca", "descripcio": null, "link": "https://ca.wikipedia.org/wiki/Torre_Major_d%27Alc%C3%BAdia", "visibilitat": true, "id_talaia": 15, "simbologia": "talaies - participen", "municipi": "Alcúdia", "horari_encesa": "matí i capvespre", "senyal": null }, "geometry": { "type": "Point", "coordinates": [ 3.147001070679224, 39.835582622432021 ] } },
{ "type": "Feature", "properties": { "fid": 16, "nom": "Talaia Moreia o del Cap Ferrutx", "estat": "bo", "data_edicio": "2026-01-26T20:51:26.817Z", "Tipus": "torre o talaia", "Imatge": "https://d2exd72xrrp1s7.cloudfront.net/www/000/1k7/y2/y2dr0obcmb881fg4b8jd4u9lc4q0qlcht-uhi65480607/0?width=2560&crop=false&q=70", "territori": "Mallorca", "descripcio": null, "link": "https://ca.wikipedia.org/wiki/Talaia_Moreia", "visibilitat": true, "id_talaia": 16, "simbologia": "talaies - participen", "municipi": "Artà", "horari_encesa": "matí i capvespre", "senyal": "Sense pirotècnia" }, "geometry": { "type": "Point", "coordinates": [ 3.349955912701457, 39.780663394205064 ] } },
{ "type": "Feature", "properties": { "fid": 17, "nom": "Talaia de Son Jaumell", "estat": "deteriorat", "data_edicio": "2026-01-23T21:50:30.676Z", "Tipus": "torre o talaia", "Imatge": "https://www.click-mallorca.com/blog/wp-content/uploads/2024/01/talaia-son-jaumell-6-1536x905.jpg", "territori": "Mallorca", "descripcio": null, "link": "https://de.wikipedia.org/wiki/Talaia_de_Son_Jaumell", "visibilitat": true, "id_talaia": 17, "simbologia": "talaies - participen", "municipi": "Capdepera", "horari_encesa": "matí i capvespre", "senyal": null }, "geometry": { "type": "Point", "coordinates": [ 3.451588059883519, 39.738340606154438 ] } },
{ "type": "Feature", "properties": { "fid": 18, "nom": "Torre de Cala Figuera", "estat": "molt deteriorat", "data_edicio": "2026-01-23T21:51:20.891Z", "Tipus": "torre o talaia", "Imatge": "https://upload.wikimedia.org/wikipedia/commons/thumb/8/8a/Torre_de_Cala_Figuera.jpg/1280px-Torre_de_Cala_Figuera.jpg", "territori": "Mallorca", "descripcio": null, "link": "https://ca.wikipedia.org/wiki/Torre_de_Cala_Figuera", "visibilitat": true, "id_talaia": 18, "simbologia": "talaies - participen", "municipi": "Calvià", "horari_encesa": "matí i capvespre", "senyal": null }, "geometry": { "type": "Point", "coordinates": [ 2.520110347167342, 39.458202919536021 ] } },
{ "type": "Feature", "properties": { "fid": 19, "nom": "Torre d'es Cap Andritxol", "estat": "bo", "data_edicio": "2026-01-23T21:52:45.747Z", "Tipus": "torre o talaia", "Imatge": "https://d2exd72xrrp1s7.cloudfront.net/www/000/1k4/1t/1tz6qd6n51cxny9bkocmyrvxk3aia9p4r-uhi10764291/0?width=2560&crop=false&q=70", "territori": "Mallorca", "descripcio": null, "link": "https://ca.wikipedia.org/wiki/Torre_del_Cap_Andritxol", "visibilitat": true, "id_talaia": 19, "simbologia": "talaies - no participen", "municipi": "Andratx", "horari_encesa": "no participa", "senyal": null }, "geometry": { "type": "Point", "coordinates": [ 2.424929606639442, 39.529099635437511 ] } },
{ "type": "Feature", "properties": { "fid": 20, "nom": "Talaia de Rafalbetx", "estat": "ruita total", "data_edicio": "2026-01-23T22:04:56.387Z", "Tipus": "torre o talaia", "Imatge": null, "territori": "Mallorca", "descripcio": null, "link": "https://www.xn--castillosdeespaa-lub.es/es/content/torre/rafeubetx-torre-de", "visibilitat": true, "id_talaia": 20, "simbologia": "talaies - participen", "municipi": "Calvià", "horari_encesa": "matí i capvespre", "senyal": null }, "geometry": { "type": "Point", "coordinates": [ 2.491895768122295, 39.473483189241719 ] } },
{ "type": "Feature", "properties": { "fid": 21, "nom": "Torre de Malgrats", "estat": "desapareguda", "data_edicio": "2026-01-26T21:09:48.646Z", "Tipus": "torre o talaia", "Imatge": "https://upload.wikimedia.org/wikipedia/commons/thumb/7/77/MiradorMalgrats-Calvi%C3%A1.jpg/500px-MiradorMalgrats-Calvi%C3%A1.jpg", "territori": "Mallorca", "descripcio": null, "link": "https://ca.wikipedia.org/wiki/Torre_de_Malgrats", "visibilitat": true, "id_talaia": 21, "simbologia": "talaies - participen", "municipi": "Calvià", "horari_encesa": "matí i capvespre", "senyal": null }, "geometry": { "type": "Point", "coordinates": [ 2.456925517511599, 39.505188152226943 ] } },
{ "type": "Feature", "properties": { "fid": 22, "nom": "Torre de sa Mola", "estat": "bo", "data_edicio": "2026-01-23T22:07:24.586Z", "Tipus": "torre o talaia", "Imatge": "https://uh.gsstatic.es/sfAttachPlugin/getCachedContent/id/271402/width/375/height/500", "territori": "Mallorca", "descripcio": null, "link": "https://ca.wikipedia.org/wiki/Torre_de_la_Mola_d%27Andratx", "visibilitat": true, "id_talaia": 22, "simbologia": "talaies - participen", "municipi": "Andratx", "horari_encesa": "matí i capvespre", "senyal": null }, "geometry": { "type": "Point", "coordinates": [ 2.372429224684902, 39.535945555869013 ] } },
{ "type": "Feature", "properties": { "fid": 23, "nom": "Torre Nova o de s'Evangèlica", "estat": "bo", "data_edicio": "2026-01-23T19:57:39.114Z", "Tipus": "torre (port)", "Imatge": "https://upload.wikimedia.org/wikipedia/commons/b/b7/Sa_torre_Nova.jpg", "territori": "Mallorca", "descripcio": null, "link": "https://ca.wikipedia.org/wiki/Torre_de_l%27Evang%C3%A8lica", "visibilitat": true, "id_talaia": 23, "simbologia": "talaies - participen", "municipi": "Andratx", "horari_encesa": "matí i capvespre", "senyal": null }, "geometry": { "type": "Point", "coordinates": [ 2.427401113811866, 39.636229040319911 ] } },
{ "type": "Feature", "properties": { "fid": 24, "nom": "Torre d'es Verger o de ses Ànimes", "estat": "bo", "data_edicio": "2026-01-23T19:57:39.116Z", "Tipus": "torre o talaia", "Imatge": "https://xmallorca.com/mallorca-travel/uploads/2019/01/2015-11-03-11.57.45-800x419.jpeg", "territori": "Mallorca", "descripcio": null, "link": "https://ca.wikipedia.org/wiki/Torre_del_Verger", "visibilitat": true, "id_talaia": 24, "simbologia": "talaies - participen", "municipi": "Banyalbufar", "horari_encesa": "matí i capvespre", "senyal": null }, "geometry": { "type": "Point", "coordinates": [ 2.500014168943103, 39.683671371438201 ] } },
{ "type": "Feature", "properties": { "fid": 26, "nom": "Castell de Sant Carles", "estat": "bo", "data_edicio": "2026-01-26T20:54:10.371Z", "Tipus": "fortalesa", "Imatge": "https://castillomuseosancarlos.com/wp-content/uploads/2024/11/img_home_1.jpg", "territori": "Mallorca", "descripcio": null, "link": "https://ca.wikipedia.org/wiki/Fortalesa_de_Sant_Carles", "visibilitat": true, "id_talaia": 26, "simbologia": "talaies - participen", "municipi": "Palma", "horari_encesa": "matí i capvespre", "senyal": null }, "geometry": { "type": "Point", "coordinates": [ 2.623315147618887, 39.546363846357352 ] } },
{ "type": "Feature", "properties": { "fid": 27, "nom": "Torre de Ses Illetes", "estat": "bo", "data_edicio": "2026-01-26T20:55:39.804Z", "Tipus": "torre o talaia", "Imatge": "https://upload.wikimedia.org/wikipedia/commons/thumb/5/57/Illa_de_Sa_Torre.JPG/1200px-Illa_de_Sa_Torre.JPG", "territori": "Mallorca", "descripcio": null, "link": "https://ca.wikipedia.org/wiki/Illa_de_la_Torre", "visibilitat": true, "id_talaia": 27, "simbologia": "talaies - no participen", "municipi": "Calvià", "horari_encesa": "no participa", "senyal": null }, "geometry": { "type": "Point", "coordinates": [ 2.588610568474784, 39.529190219231523 ] } },
{ "type": "Feature", "properties": { "fid": 28, "nom": "Torre de sa Porrassa o de na Nadala", "estat": "bo", "data_edicio": "2026-01-23T19:57:39.123Z", "Tipus": "torre o talaia", "Imatge": "https://i.ytimg.com/vi/0xwnR2qfvmY/maxresdefault.jpg", "territori": "Mallorca", "descripcio": null, "link": "https://ca.wikipedia.org/wiki/Torre_de_sa_Porrassa", "visibilitat": true, "id_talaia": 28, "simbologia": "talaies - participen", "municipi": "Calvià", "horari_encesa": "matí i capvespre", "senyal": null }, "geometry": { "type": "Point", "coordinates": [ 2.54608053408742, 39.511367011530062 ] } },
{ "type": "Feature", "properties": { "fid": 29, "nom": "Talaia d'es Cap Blanc", "estat": "regular", "data_edicio": "2026-01-23T22:41:21.665Z", "Tipus": "torre o talaia", "Imatge": "https://upload.wikimedia.org/wikipedia/commons/thumb/1/19/Torre_Cap_Blanc.jpg/960px-Torre_Cap_Blanc.jpg", "territori": "Mallorca", "descripcio": null, "link": "https://ca.wikipedia.org/wiki/Torre_del_Cap_Blanc", "visibilitat": true, "id_talaia": 29, "simbologia": "talaies - participen", "municipi": "Llucmajor", "horari_encesa": "matí i capvespre", "senyal": null }, "geometry": { "type": "Point", "coordinates": [ 2.790855262307339, 39.362868061112124 ] } },
{ "type": "Feature", "properties": { "fid": 30, "nom": "Torre de Cala Pi", "estat": "bo", "data_edicio": "2026-01-23T19:57:39.126Z", "Tipus": "torre o talaia", "Imatge": "https://www.estilopalma.com/wp-content/uploads/2024/03/Talaia-Torre-Cala-Pi.jpg", "territori": "Mallorca", "descripcio": null, "link": "https://www.xn--castillosdeespaa-lub.es/es/content/cala-pi-torre-de", "visibilitat": true, "id_talaia": 30, "simbologia": "talaies - participen", "municipi": "Llucmajor", "horari_encesa": "matí i capvespre", "senyal": null }, "geometry": { "type": "Point", "coordinates": [ 2.835328827853113, 39.36150463771385 ] } },
{ "type": "Feature", "properties": { "fid": 31, "nom": "Torre de s'Estalella", "estat": "bo", "data_edicio": "2026-01-23T19:57:39.128Z", "Tipus": "torre o talaia", "Imatge": "https://upload.wikimedia.org/wikipedia/commons/thumb/d/dd/Torre_S%27Estelella_i_Cabrera.JPG/1194px-Torre_S%27Estelella_i_Cabrera.JPG", "territori": "Mallorca", "descripcio": null, "link": "https://ca.wikipedia.org/wiki/Torre_de_s%27Estelella", "visibilitat": true, "id_talaia": 31, "simbologia": "talaies - participen", "municipi": "Llucmajor", "horari_encesa": "matí i capvespre", "senyal": null }, "geometry": { "type": "Point", "coordinates": [ 2.902070952744395, 39.358918376172369 ] } },
{ "type": "Feature", "properties": { "fid": 32, "nom": "Castell de Cabrera", "estat": "bo", "data_edicio": "2026-01-23T23:43:41.215Z", "Tipus": "torre o talaia", "Imatge": "https://upload.wikimedia.org/wikipedia/commons/thumb/7/7c/Castelldecabrera.JPG/500px-Castelldecabrera.JPG", "territori": "Mallorca", "descripcio": "Construït el 1400. Només al segle XVI el castell fou destruït i reconstruït almenys en deu ocasions.", "link": "https://ca.wikipedia.org/wiki/Castell_de_Cabrera_(illa_de_Cabrera)", "visibilitat": true, "id_talaia": 32, "simbologia": "talaies - participen", "municipi": "Palma", "horari_encesa": "matí i capvespre", "senyal": null }, "geometry": { "type": "Point", "coordinates": [ 2.931815907346594, 39.152699261654249 ] } },
{ "type": "Feature", "properties": { "fid": 33, "nom": "Torre Nova de sa Roca Fesa", "estat": "bo", "data_edicio": "2026-01-23T19:57:39.131Z", "Tipus": "torre o talaia", "Imatge": "https://upload.wikimedia.org/wikipedia/commons/thumb/f/fd/Torre_Nova_de_sa_Roca_Fesa.jpg/760px-Mapcarta.jpg", "territori": "Mallorca", "descripcio": "La torre Nova de la roca Fesa, s'erigí entre el 1663 i 1667 a instàncies dels veïns de\nSantanyí i la Universitat de Mallorca.\nLa torre presenta planta circular amb la base atalussada, construïda de paredat en verd i carreus de marés.\nTé un portal amb llinda de carreus de marés, situat a mitja alçada al costat nord-oest . A sobre hi ha un matacà.\nEn una de les zones on es conserven els carreus de marés originals hi ha un graffit incís d'una nau. Aquest se situava a la part baixa de la torre, a la dreta de l'escala de metall.\nBarceló i Danús ens diuen el següent: \"Talaia costera, construïda entre els anys 1663 i 1667, de planta circular de 7 m de diàmetre i 9,25 m d'alçada. Tant el parament exterior com el parament interior disposaven de quatre reforços de marés. La coberta era una cúpula de mitja taronja sostinguda per dos arcs de marés entrellaçats que partien de quatre suports també de marès i el terrat estava enllosat. Disposava d'un canó. ", "link": "https://ca.wikipedia.org/wiki/Torre_de_la_Roca_Fesa", "visibilitat": true, "id_talaia": 33, "simbologia": "talaies - no participen", "municipi": "Santanyí", "horari_encesa": "no participa", "senyal": null }, "geometry": { "type": "Point", "coordinates": [ 3.150204745035322, 39.327239367282054 ] } },
{ "type": "Feature", "properties": { "fid": 34, "nom": "Torre d'en Beu", "estat": "bo", "data_edicio": "2026-01-23T19:57:39.132Z", "Tipus": "torre o talaia", "Imatge": "https://upload.wikimedia.org/wikipedia/commons/thumb/e/ea/Torre_d%27en_Beu_Cala_Figuera_%28Santany%C3%AD%29_01.jpg/960px-Torre_d%27en_Beu_Cala_Figuera_%28Santany%C3%AD%29_01.jpg", "territori": "Mallorca", "descripcio": null, "link": "https://ca.wikipedia.org/wiki/Torre_d%27en_Beu", "visibilitat": true, "id_talaia": 34, "simbologia": "talaies - participen", "municipi": "Santanyí", "horari_encesa": "matí i capvespre", "senyal": null }, "geometry": { "type": "Point", "coordinates": [ 3.176987933139198, 39.329686157207945 ] } },
{ "type": "Feature", "properties": { "fid": 35, "nom": "Es Castell - Punta de n'Amer", "estat": "bo", "data_edicio": "2026-01-23T19:57:39.134Z", "Tipus": "torre o talaia", "Imatge": "https://upload.wikimedia.org/wikipedia/commons/thumb/8/8e/Castell_de_n%27Amer_09.jpg/1198px-Castell_de_n%27Amer_09.jpg", "territori": "Mallorca", "descripcio": null, "link": "https://ca.wikipedia.org/wiki/Castell_de_la_Punta_de_n%27Amer", "visibilitat": true, "id_talaia": 35, "simbologia": "talaies - participen", "municipi": "Sant Llorenç des Cardassar", "horari_encesa": "matí i capvespre", "senyal": null }, "geometry": { "type": "Point", "coordinates": [ 3.396179501655123, 39.579914869447499 ] } },
{ "type": "Feature", "properties": { "fid": 36, "nom": "Torre del Cap des Jueu o des Savinar", "estat": "bo", "data_edicio": "2026-01-23T23:41:28.134Z", "Tipus": "torre o talaia", "Imatge": "https://upload.wikimedia.org/wikipedia/commons/7/77/Capdesjueu.png", "territori": "Pitiüses", "descripcio": null, "link": "https://ca.wikipedia.org/wiki/Torre_des_Savinar", "visibilitat": false, "id_talaia": 36, "simbologia": "talaies - no participen", "municipi": "Sant Josep de sa Talaia", "horari_encesa": "no participa", "senyal": null }, "geometry": { "type": "Point", "coordinates": [ 1.227958739362646, 38.87413904807363 ] } },
{ "type": "Feature", "properties": { "fid": 37, "nom": "Torre de ses Portes", "estat": "bo", "data_edicio": "2026-01-23T23:41:28.135Z", "Tipus": "torre o talaia", "Imatge": "https://upload.wikimedia.org/wikipedia/commons/thumb/e/e8/Tower_Ses_Salines.jpg/500px-Tower_Ses_Salines.jpg", "territori": "Pitiüses", "descripcio": null, "link": "https://ca.wikipedia.org/wiki/Torre_de_ses_Portes", "visibilitat": false, "id_talaia": 37, "simbologia": "talaies - no participen", "municipi": "Sant Josep de sa Talaia", "horari_encesa": "no participa", "senyal": null }, "geometry": { "type": "Point", "coordinates": [ 1.405844821243535, 38.832196347814637 ] } },
{ "type": "Feature", "properties": { "fid": 38, "nom": "Torre des Garroveret", "estat": "bo", "data_edicio": "2026-01-23T23:41:28.137Z", "Tipus": "torre o talaia", "Imatge": "https://upload.wikimedia.org/wikipedia/commons/thumb/f/f5/Torre_des_Garroveret_E.jpg/960px-Torre_des_Garroveret_E.jpg", "territori": "Pitiüses", "descripcio": null, "link": "https://ca.wikipedia.org/wiki/Torre_des_Garroveret", "visibilitat": false, "id_talaia": 38, "simbologia": "talaies - no participen", "municipi": "Formentera", "horari_encesa": "no participa", "senyal": null }, "geometry": { "type": "Point", "coordinates": [ 1.396606287279562, 38.643760385825971 ] } },
{ "type": "Feature", "properties": { "fid": 39, "nom": "Torre d'es Cap Enderrocat", "estat": "ruina total", "data_edicio": "2026-01-23T22:39:42.368Z", "Tipus": "torre o talaia", "Imatge": "http://www.mallorca-torres.de/bilder/enderrocat_2.jpg", "territori": "Mallorca", "descripcio": null, "link": "https://cronicodemallorca.cat/02116-2/", "visibilitat": true, "id_talaia": 39, "simbologia": "talaies - participen", "municipi": "Llucmajor", "horari_encesa": "matí i capvespre", "senyal": null }, "geometry": { "type": "Point", "coordinates": [ 2.723122239923286, 39.476676361034578 ] } },
{ "type": "Feature", "properties": { "fid": 40, "nom": "Castell de Bellver", "estat": "bo", "data_edicio": "2026-01-23T19:57:39.143Z", "Tipus": "fortalesa", "Imatge": "https://www.zafirohotels.com/content/thumbs/800_450/content/imgsxml/blog/castillodebellver123.jpg", "territori": "Mallorca", "descripcio": null, "link": "https://ca.wikipedia.org/wiki/Castell_de_Bellver", "visibilitat": true, "id_talaia": 40, "simbologia": "talaies - participen", "municipi": "Palma", "horari_encesa": "matí i capvespre", "senyal": null }, "geometry": { "type": "Point", "coordinates": [ 2.619293884821173, 39.564178327617348 ] } },
{ "type": "Feature", "properties": { "fid": 41, "nom": "Castell del Rei", "estat": "molt deteriorat", "data_edicio": "2026-01-23T22:26:09.626Z", "Tipus": "fortalesa", "Imatge": "https://upload.wikimedia.org/wikipedia/commons/1/1e/Castell-del-rei_01.jpg", "territori": "Mallorca", "descripcio": null, "link": "https://ca.wikipedia.org/wiki/Castell_del_Rei_(Pollen%C3%A7a)", "visibilitat": true, "id_talaia": 41, "simbologia": "talaies - participen", "municipi": "Pollença", "horari_encesa": "matí", "senyal": "Sense pirotècnia" }, "geometry": { "type": "Point", "coordinates": [ 3.010278965887366, 39.922698027669803 ] } },
{ "type": "Feature", "properties": { "fid": 42, "nom": "Torre Redona de Son Bauçà", "estat": "bo", "data_edicio": "2026-01-23T19:57:39.147Z", "Tipus": "fortalesa", "Imatge": "https://castillosnet.org//datos/baleares/deia/deia/torre_de_son_bauza/PM-CAS-055-1416001.jpg", "territori": "Mallorca", "descripcio": null, "link": "https://castillosnet.org//monumento.php?r=PM-CAS-055&seo=torre-de-son-bauz%C3%A1", "visibilitat": true, "id_talaia": 42, "simbologia": "talaies - no participen", "municipi": "Deià", "horari_encesa": "no participa", "senyal": null }, "geometry": { "type": "Point", "coordinates": [ 2.641838011393585, 39.751160188162473 ] } },
{ "type": "Feature", "properties": { "fid": 43, "nom": "Torre Esbucada", "estat": "molt deteriorat", "data_edicio": "2026-01-23T19:57:39.148Z", "Tipus": "torre o talaia", "Imatge": "https://upload.wikimedia.org/wikipedia/commons/thumb/9/91/Mallorca_Torre_Esbucada_asv2023-04_img1.jpg/960px-Mallorca_Torre_Esbucada_asv2023-04_img1.jpg", "territori": "Mallorca", "descripcio": null, "link": "https://de.wikipedia.org/wiki/Torre_Esbucada", "visibilitat": true, "id_talaia": 43, "simbologia": "talaies - participen", "municipi": "Capdepera", "horari_encesa": "matí i capvespre", "senyal": null }, "geometry": { "type": "Point", "coordinates": [ 3.475207, 39.7170301 ] } },
{ "type": "Feature", "properties": { "fid": 44, "nom": "Torre des Falcons o del Port de Manacor", "estat": "deteriorat", "data_edicio": "2026-01-23T19:57:39.151Z", "Tipus": "torre o talaia", "Imatge": "https://manacormanacor.com/upload/img/periodico/img_27595.jpg", "territori": "Mallorca", "descripcio": "La torre, construïda el 1577 i acabada l’any següent, fou objecte de diverses reparacions als segles XVI i XVII, i passà de servir només al sistema de senyals de la costa de Llevant a incorporar artilleria, renovada el 1733. Durant la Guerra de Successió, l’explosió d’una peça matà el torrer. Al segle XIX la torre perdé importància i fou traspassada el 1867. El 1936 resultà greument malmesa durant el desembarcament del capità Bayo, però el 1960 els propietaris la restauraren i li donaren l’aspecte actual.", "link": "https://ca.wikipedia.org/wiki/Torre_del_Serral_dels_Falcons", "visibilitat": true, "id_talaia": 44, "simbologia": "talaies - participen", "municipi": "Manacor", "horari_encesa": "matí i capvespre", "senyal": null }, "geometry": { "type": "Point", "coordinates": [ 3.3371072, 39.5333018 ] } },
{ "type": "Feature", "properties": { "fid": 45, "nom": "Castell d'Alaró", "estat": "molt deteriorat", "data_edicio": "2026-01-23T19:57:39.152Z", "Tipus": "fortalesa", "Imatge": "https://www.foravila.net/wp-content/uploads/2021/05/008-Torre-del-Homenatge-scaled.jpg", "territori": "Mallorca", "descripcio": null, "link": "https://ca.wikipedia.org/wiki/Castell_d%27Alar%C3%B3", "visibilitat": true, "id_talaia": 45, "simbologia": "talaies - participen", "municipi": "Alaró", "horari_encesa": "matí i capvespre", "senyal": null }, "geometry": { "type": "Point", "coordinates": [ 2.7914644, 39.7338085 ] } },
{ "type": "Feature", "properties": { "fid": 46, "nom": "Torre de Son Bou", "estat": "desapareguda", "data_edicio": "2026-01-24T09:49:31.592Z", "Tipus": "torre o talaia", "Imatge": "https://patrimoniomm.wordpress.com/wp-content/uploads/2015/11/torre-de-son-bou-web-museo-de-menorca.jpg?w=640", "territori": "Menorca", "descripcio": "Va ser construïda el 1805 pels espanyols, un cop recuperada l'illa del domini britànic. Va ser enderrocada 3 anys més tard, el 2 d'abril de 1808, quan va ser atacada per un destacament que va desembarcar de la fragata britànica HMS Imperiouse, sota el comandament de Lord Cochrane, en la guerra amb Napoleó. Les seves restes possiblement van ser utilitzades duran la Guerra Civil espanyola per a construir un búnker al mateix lloc", "link": "https://ca.wikipedia.org/wiki/Torre_de_Son_Bou", "visibilitat": false, "id_talaia": 46, "simbologia": "talaies - no participen", "municipi": "Es Migjorn Gran", "horari_encesa": "no participa", "senyal": null }, "geometry": { "type": "Point", "coordinates": [ 4.0528818, 39.9069036 ] } },
{ "type": "Feature", "properties": { "fid": 47, "nom": "Torre de Fornells", "estat": "molt bo", "data_edicio": "2026-01-24T09:49:31.593Z", "Tipus": "torre o talaia", "Imatge": "https://upload.wikimedia.org/wikipedia/commons/b/bf/TorreFornells.jpg", "territori": "Menorca", "descripcio": null, "link": "https://ca.wikipedia.org/wiki/Torre_de_Fornells", "visibilitat": false, "id_talaia": 47, "simbologia": "talaies - no participen", "municipi": "Es Mercadal", "horari_encesa": "no participa", "senyal": null }, "geometry": { "type": "Point", "coordinates": [ 4.1305316, 40.0613684 ] } },
{ "type": "Feature", "properties": { "fid": 48, "nom": "Torre Illa de ses Sargantanes", "estat": "regular", "data_edicio": "2026-01-24T09:49:31.595Z", "Tipus": "torre o talaia", "Imatge": "http://www.menorca.es/documents/Imatges/2093imgpub.JPG", "territori": "Menorca", "descripcio": null, "link": "https://es.wikipedia.org/wiki/Torre_de_la_Isla_de_Ses_Sargantanes", "visibilitat": false, "id_talaia": 48, "simbologia": "talaies - no participen", "municipi": "Es Mercadal", "horari_encesa": "no participa", "senyal": null }, "geometry": { "type": "Point", "coordinates": [ 4.1363888, 40.0475253 ] } },
{ "type": "Feature", "properties": { "fid": 49, "nom": "Torre de la Rambla", "estat": "molt bo", "data_edicio": "2026-01-24T09:49:31.596Z", "Tipus": "torre o talaia", "Imatge": "https://patrimoniomm.wordpress.com/wp-content/uploads/2014/07/p1170501torre-rambla.jpg?w=640&h=480", "territori": "Menorca", "descripcio": null, "link": "https://ca.wikipedia.org/wiki/Torre_de_Rambla", "visibilitat": false, "id_talaia": 49, "simbologia": "talaies - no participen", "municipi": "Maó", "horari_encesa": "no participa", "senyal": null }, "geometry": { "type": "Point", "coordinates": [ 4.265262304703097, 39.962867959318501 ] } },
{ "type": "Feature", "properties": { "fid": 50, "nom": "Bastió de l'església de Santa Eulària", "estat": "molt bo", "data_edicio": "2026-01-23T23:41:28.138Z", "Tipus": "torre o talaia", "Imatge": "https://www.castillosnet.org//datos/baleares/santa_eularia_des_riu/santa_eularia_des_riu/iglesia_fortificada_del_puig_de_missa//PM-CAS-006-1033001.jpg", "territori": "Pitiüses", "descripcio": null, "link": "https://www.castillosnet.org//monumento.php?r=PM-CAS-006&seo=iglesia-fortificada-del-puig-de-missa", "visibilitat": false, "id_talaia": 50, "simbologia": "talaies - no participen", "municipi": "Santa Eulària des Riu", "horari_encesa": "no participa", "senyal": null }, "geometry": { "type": "Point", "coordinates": [ 1.529189671198246, 38.983876105700062 ] } },
{ "type": "Feature", "properties": { "fid": 51, "nom": "Torre d'es Molar o del Port de Balansat", "estat": "bo", "data_edicio": "2026-01-23T23:41:28.139Z", "Tipus": "torre o talaia", "Imatge": "https://upload.wikimedia.org/wikipedia/commons/3/38/Desmolar.png", "territori": "Pitiüses", "descripcio": null, "link": "https://ca.wikipedia.org/wiki/Torres_de_guaita_de_les_Piti%C3%BCses", "visibilitat": false, "id_talaia": 51, "simbologia": "talaies - no participen", "municipi": "Sant Joan de Labritja", "horari_encesa": "no participa", "senyal": null }, "geometry": { "type": "Point", "coordinates": [ 1.434190942297136, 39.086858336125559 ] } },
{ "type": "Feature", "properties": { "fid": 52, "nom": "Castell de Santueri", "estat": "deteriorat", "data_edicio": "2026-01-24T10:49:26.828Z", "Tipus": "fortalesa", "Imatge": "https://www.santueri.org/.cm4all/uproc.php/0/Santueri%20castle%20-1.jpg", "territori": "Mallorca", "descripcio": null, "link": "https://ca.wikipedia.org/wiki/Castell_de_Santueri", "visibilitat": true, "id_talaia": 52, "simbologia": "talaies - no participen", "municipi": "Felanitx", "horari_encesa": "no participa", "senyal": null }, "geometry": { "type": "Point", "coordinates": [ 3.187845373522436, 39.431935599248078 ] } },
{ "type": "Feature", "properties": { "fid": 53, "nom": "Torre Nova des Cap Vermell", "estat": "bo", "data_edicio": "2026-01-23T22:53:16.449Z", "Tipus": "torre o talaia", "Imatge": "https://upload.wikimedia.org/wikipedia/commons/thumb/2/2a/Torre_Nova_des_Cap_Vermell_2023_2.jpg/1280px-Torre_Nova_des_Cap_Vermell_2023_2.jpg", "territori": "Mallorca", "descripcio": null, "link": "https://de.wikipedia.org/wiki/Torre_Nova_des_Cap_Vermell", "visibilitat": true, "id_talaia": 53, "simbologia": "talaies - participen", "municipi": "Capdepera", "horari_encesa": "matí i capvespre", "senyal": null }, "geometry": { "type": "Point", "coordinates": [ 3.448570250538682, 39.661954692560187 ] } },
{ "type": "Feature", "properties": { "fid": 54, "nom": "Torre d'Albarca o d'es Matzoc", "estat": "regular", "data_edicio": "2026-01-24T00:15:29.804Z", "Tipus": "torre o talaia", "Imatge": "https://upload.wikimedia.org/wikipedia/commons/thumb/0/07/Torre_des_Matzoc_04.jpg/1280px-Torre_des_Matzoc_04.jpg", "territori": "Mallorca", "descripcio": null, "link": "https://de.wikipedia.org/wiki/Torre_des_Matzoc", "visibilitat": true, "id_talaia": 54, "simbologia": "talaies - participen", "municipi": "Artà", "horari_encesa": "matí i capvespre", "senyal": null }, "geometry": { "type": "Point", "coordinates": [ 3.403430470138989, 39.763262752495493 ] } },
{ "type": "Feature", "properties": { "fid": 55, "nom": "Torre de Son Durí", "estat": "bo", "data_edicio": "2026-01-23T19:57:39.170Z", "Tipus": "torre o talaia", "Imatge": "https://upload.wikimedia.org/wikipedia/commons/thumb/a/a6/Torre_de_Son_Dur%C3%AD.jpg/960px-Torre_de_Son_Dur%C3%AD.jpg", "territori": "Mallorca", "descripcio": "Construïda el 1595", "link": "https://ca.wikipedia.org/wiki/Torre_de_Son_Dur%C3%AD", "visibilitat": true, "id_talaia": 55, "simbologia": "talaies - participen", "municipi": "Campos", "horari_encesa": "matí i capvespre", "senyal": null }, "geometry": { "type": "Point", "coordinates": [ 2.953357134936006, 39.362556398125733 ] } },
{ "type": "Feature", "properties": { "fid": 56, "nom": "Castell de Sant Nicolau", "estat": "molt bo", "data_edicio": "2026-01-23T22:56:39.016Z", "Tipus": "torre (port)", "Imatge": "https://menorcatrip.com/wp-content/uploads/2022/01/castillosantnicolau-730x487.jpg", "territori": "Menorca", "descripcio": null, "link": "https://ca.wikipedia.org/wiki/Castell_de_Sant_Nicolau", "visibilitat": false, "id_talaia": 56, "simbologia": "talaies - participen", "municipi": "Ciutadella de Menorca", "horari_encesa": "matí i capvespre", "senyal": null }, "geometry": { "type": "Point", "coordinates": [ 3.825809251961368, 39.995677466377884 ] } },
{ "type": "Feature", "properties": { "fid": 58, "nom": "Torre de Portocolom", "estat": "desapareguda", "data_edicio": "2026-01-23T23:20:31.812Z", "Tipus": "torre o talaia", "Imatge": "https://uh.gsstatic.es/sfAttachPlugin/getCachedContent/id/137762/width/730/height/500/crop/1", "territori": "Mallorca", "descripcio": "La documentació indica que la vigilància de Cala Llonga, Portopetro i Portocolom es feia inicialment des del llunyà Castell de Santueri, fins que el 1570 es decidí construir una torre a la punta d’en Bordoi, acabada l’any següent. Com que era massa baixa, el 1577 se n’ordenà l’alçament i el 1618 s’hi instal·là una bombarda. El 1860, arran de la visita d’Isabel II, s’hi augmentà temporalment el nombre de torrers, però el sistema ja era obsolet; el 1867 la torre passà a Hisenda i finalment fou enderrocada el 1919.", "link": "https://ca.wikipedia.org/wiki/Torre_de_Portocolom", "visibilitat": true, "id_talaia": 59, "simbologia": "talaies - participen", "municipi": "Felanitx", "horari_encesa": "matí i capvespre", "senyal": null }, "geometry": { "type": "Point", "coordinates": [ 3.272243377833344, 39.415308089735923 ] } },
{ "type": "Feature", "properties": { "fid": 59, "nom": "Es Fortí de Cala Llonga", "estat": "bo", "data_edicio": "2026-01-23T22:58:04.834Z", "Tipus": "fortalesa", "Imatge": "https://visitcalafiguera.com/wp-content/uploads/2021/05/IMG_3210-600x450.jpg", "territori": "Mallorca", "descripcio": "Es Fortí és una fortificació militar que allotjava la tropa que custodiava la zona marítima del sud-est de Mallorca. Des que es construís, el 1730, aquesta fortificació ha passat per moltes fases. Situat a Cala Llonga, constituïa un punt estratègic. Actualment roman obert a el públic.", "link": "https://visitcalafiguera.com/es-forti/", "visibilitat": true, "id_talaia": 60, "simbologia": "talaies - no participen", "municipi": "Santanyí", "horari_encesa": "no participa", "senyal": null }, "geometry": { "type": "Point", "coordinates": [ 3.233891468219178, 39.366766252823226 ] } },
{ "type": "Feature", "properties": { "fid": 60, "nom": "Torre de na Gosta (desapareguda)", "estat": "desapareguda", "data_edicio": "2026-01-23T22:59:19.344Z", "Tipus": "torre o talaia", "Imatge": "https://dynamic-media-cdn.tripadvisor.com/media/photo-o/18/09/80/ba/faro-ses-salines.jpg?w=900&h=-1&s=1", "territori": "Mallorca", "descripcio": null, "link": "https://cronicodemallorca.cat/02122-2/", "visibilitat": true, "id_talaia": 61, "simbologia": "talaies - no participen", "municipi": "Santanyí", "horari_encesa": "no participa", "senyal": null }, "geometry": { "type": "Point", "coordinates": [ 3.055507106292569, 39.265198690608464 ] } },
{ "type": "Feature", "properties": { "fid": 61, "nom": "Torre de sa Colònia de Sant Jordi", "estat": "desapareguda", "data_edicio": "2026-01-23T23:02:33.710Z", "Tipus": "torre o talaia", "Imatge": "https://content-viajes.nationalgeographic.com.es/medio/2023/07/26/faro-colonia-sant-jordi_33a81dcb_230726180945_1280x850.jpg", "territori": "Mallorca", "descripcio": "", "link": "https://www.toponimiamallorca.net/index.php?option=com_content&view=article&id=568:torre-del-port-de-campos&Itemid=185", "visibilitat": true, "id_talaia": 62, "simbologia": "talaies - participen", "municipi": "ses Salines", "horari_encesa": "matí i capvespre", "senyal": null }, "geometry": { "type": "Point", "coordinates": [ 2.993532269609315, 39.312392939136778 ] } },
{ "type": "Feature", "properties": { "fid": 62, "nom": "S'Almudaina", "estat": "bo", "data_edicio": "2026-01-23T19:57:39.182Z", "Tipus": "fortalesa", "Imatge": "https://visitpalma.com/wp-content/uploads/2025/05/Palacio-Almudaina.jpg", "territori": "Mallorca", "descripcio": null, "link": "https://ca.wikipedia.org/wiki/Palau_Reial_de_l%27Almudaina", "visibilitat": true, "id_talaia": 63, "simbologia": "talaies - no participen", "municipi": "Palma", "horari_encesa": "no participa", "senyal": null }, "geometry": { "type": "Point", "coordinates": [ 2.64688682100227, 39.567716535669575 ] } },
{ "type": "Feature", "properties": { "fid": 63, "nom": "Torre d'es Morro o de Portals Vells", "estat": "deteriorat", "data_edicio": "2026-01-23T23:05:25.368Z", "Tipus": "torre o talaia", "Imatge": "https://upload.wikimedia.org/wikipedia/commons/thumb/8/8f/Portals_Vells%2C_Illes_Balears%2C_Spain_-_panoramio_%284%29.jpg/1280px-Portals_Vells%2C_Illes_Balears%2C_Spain_-_panoramio_%284%29.jpg", "territori": "Mallorca", "descripcio": null, "link": "https://ca.wikipedia.org/wiki/Torre_de_Portals_Vells", "visibilitat": true, "id_talaia": 64, "simbologia": "talaies - no participen", "municipi": "Calvià", "horari_encesa": "no participa", "senyal": null }, "geometry": { "type": "Point", "coordinates": [ 2.525252477811036, 39.474455280793315 ] } },
{ "type": "Feature", "properties": { "fid": 65, "nom": "Torre de sa Punta Prima", "estat": "molt bo", "data_edicio": "2026-01-23T23:41:28.140Z", "Tipus": "torre o talaia", "Imatge": "https://upload.wikimedia.org/wikipedia/commons/thumb/b/b5/Torre-de-sa-Punta-Prima-Formentera.jpg/250px-Torre-de-sa-Punta-Prima-Formentera.jpg", "territori": "Pitiüses", "descripcio": null, "link": "https://ca.wikipedia.org/wiki/Torre_de_Punta_Prima_(Formentera)", "visibilitat": false, "id_talaia": 66, "simbologia": "talaies - no participen", "municipi": "Formentera", "horari_encesa": "no participa", "senyal": null }, "geometry": { "type": "Point", "coordinates": [ 1.47051972603731, 38.722893822045364 ] } },
{ "type": "Feature", "properties": { "fid": 66, "nom": "Torre de la Guardiola o de s'Espalmador", "estat": "bo", "data_edicio": "2026-01-23T23:41:28.141Z", "Tipus": "torre o talaia", "Imatge": "https://upload.wikimedia.org/wikipedia/commons/7/7a/Sespalmador.png", "territori": "Pitiüses", "descripcio": null, "link": "https://ca.wikipedia.org/wiki/Torre_de_s%27Espalmador", "visibilitat": false, "id_talaia": 67, "simbologia": "talaies - no participen", "municipi": "Formentera", "horari_encesa": "no participa", "senyal": null }, "geometry": { "type": "Point", "coordinates": [ 1.417957108387795, 38.784859138586192 ] } },
{ "type": "Feature", "properties": { "fid": 67, "nom": "Torre des Pi des Català o de Migjorn", "estat": "bo", "data_edicio": "2026-01-23T23:41:28.142Z", "Tipus": "torre o talaia", "Imatge": "https://upload.wikimedia.org/wikipedia/commons/thumb/8/80/Formentera_Torre_des_Pi_des_Catal%C3%A0.jpg/250px-Formentera_Torre_des_Pi_des_Catal%C3%A0.jpg", "territori": "Pitiüses", "descripcio": null, "link": "https://www.consellinsulardeformentera.cat/index.php?option=com_content&view=article&id=7126&Itemid=653&lang=ca", "visibilitat": false, "id_talaia": 68, "simbologia": "talaies - no participen", "municipi": "Formentera", "horari_encesa": "no participa", "senyal": null }, "geometry": { "type": "Point", "coordinates": [ 1.451455967219047, 38.687153397217756 ] } },
{ "type": "Feature", "properties": { "fid": 68, "nom": "Torre de sa Gavina", "estat": "bo", "data_edicio": "2026-01-23T23:41:28.144Z", "Tipus": "torre o talaia", "Imatge": "https://upload.wikimedia.org/wikipedia/commons/thumb/9/9d/Sagavina.png/250px-Sagavina.png", "territori": "Pitiüses", "descripcio": null, "link": "https://ca.wikipedia.org/wiki/Torres_de_guaita_de_les_Piti%C3%BCses", "visibilitat": false, "id_talaia": 69, "simbologia": "talaies - no participen", "municipi": "Formentera", "horari_encesa": "no participa", "senyal": null }, "geometry": { "type": "Point", "coordinates": [ 1.382165504807129, 38.717592928767189 ] } },
{ "type": "Feature", "properties": { "fid": 69, "nom": "Torre de Portinatx", "estat": "bo", "data_edicio": "2026-01-23T23:41:28.145Z", "Tipus": "torre o talaia", "Imatge": "https://upload.wikimedia.org/wikipedia/commons/thumb/0/07/RI-51-0008630.jpg/500px-RI-51-0008630.jpg", "territori": "Pitiüses", "descripcio": null, "link": "https://ca.wikipedia.org/wiki/Torre_de_Portinatx", "visibilitat": false, "id_talaia": 70, "simbologia": "talaies - no participen", "municipi": "Sant Joan de Labritja", "horari_encesa": "no participa", "senyal": null }, "geometry": { "type": "Point", "coordinates": [ 1.508451337655018, 39.111932534701843 ] } },
{ "type": "Feature", "properties": { "fid": 70, "nom": "Torre de Campanitx o d'en Valls", "estat": "bo", "data_edicio": "2026-01-23T23:41:28.146Z", "Tipus": "torre o talaia", "Imatge": "https://upload.wikimedia.org/wikipedia/commons/thumb/b/bf/Ibiza_Torre_de_Campanitx_asv2023-04.jpg/500px-Ibiza_Torre_de_Campanitx_asv2023-04.jpg", "territori": "Pitiüses", "descripcio": null, "link": "https://ca.wikipedia.org/wiki/Torre_d%27en_Valls", "visibilitat": false, "id_talaia": 71, "simbologia": "talaies - no participen", "municipi": "Santa Eulària des Riu", "horari_encesa": "no participa", "senyal": null }, "geometry": { "type": "Point", "coordinates": [ 1.619185984823572, 39.034646453116196 ] } },
{ "type": "Feature", "properties": { "fid": 71, "nom": "Torre d'en Rovira o del Compte", "estat": "bo", "data_edicio": "2026-01-23T23:41:28.147Z", "Tipus": "torre o talaia", "Imatge": "https://upload.wikimedia.org/wikipedia/commons/thumb/9/93/Torre-d%27en-Rovira07.11.jpg/330px-Torre-d%27en-Rovira07.11.jpg", "territori": "Pitiüses", "descripcio": null, "link": "https://ca.wikipedia.org/wiki/Torre_de_Compte", "visibilitat": false, "id_talaia": 72, "simbologia": "talaies - no participen", "municipi": "Sant Josep de sa Talaia", "horari_encesa": "no participa", "senyal": null }, "geometry": { "type": "Point", "coordinates": [ 1.230440148745651, 38.972761882231268 ] } },
{ "type": "Feature", "properties": { "fid": 73, "nom": "Torre des carregador de sa sal rossa", "estat": "bo", "data_edicio": "2026-01-26T20:56:46.348Z", "Tipus": "torre o talaia", "Imatge": "https://upload.wikimedia.org/wikipedia/commons/thumb/c/c0/Torre_de_Sal_Rossa_%28Sant_Josep_de_sa_Talaia%29_-_2.jpg/330px-Torre_de_Sal_Rossa_%28Sant_Josep_de_sa_Talaia%29_-_2.jpg", "territori": "Pitiüses", "descripcio": null, "link": "https://ca.wikipedia.org/wiki/Torre_des_Carregador", "visibilitat": false, "id_talaia": 74, "simbologia": "talaies - participen", "municipi": "Sant Josep de sa Talaia", "horari_encesa": "matí", "senyal": null }, "geometry": { "type": "Point", "coordinates": [ 1.404043100631546, 38.873232211013338 ] } },
{ "type": "Feature", "properties": { "fid": 85, "nom": "Torre d'es Cap des Romaní", "estat": "desapareguda", "data_edicio": "2026-01-23T22:14:21.851Z", "Tipus": "torre o talaia", "Imatge": "https://sangreyhierro.wordpress.com/wp-content/uploads/2012/11/la-torre-de-sant-albert-dibuix-dignasi-galiana-mill.jpg", "territori": "Mallorca", "descripcio": "La Torre d’en Pau és una de les fortificacions històriques de la badia de Palma, amb orígens que es remunten al segle XVI i formant part de la xarxa de torres de vigilància de la costa mallorquina. La torre original, probablement del segle XIV, fou substituïda el 1667 per una nova construcció impulsada per l’administració reial i edificada per Miquel Roig, que també en tingué cura del manteniment. Situada inicialment al Cap Romaní o Punta de Sa Torre, comptava amb fossat, pont llevadís i diverses bateries de canons que la convertien en un punt estratègic de defensa. A finals del segle XIX es decidí substituir la vella estructura deteriorada per un fortín modern situat en una cota més elevada.", "link": "https://sangreyhierro.wordpress.com/2012/11/25/el-fortin-de-torre-den-pau/", "visibilitat": true, "id_talaia": 86, "simbologia": "talaies - no participen", "municipi": "Palma", "horari_encesa": "no participa", "senyal": null }, "geometry": { "type": "Point", "coordinates": [ 2.690803977026288, 39.548151135975843 ] } },
{ "type": "Feature", "properties": { "fid": 86, "nom": "Torre de Sant Vicenç (despareguda)", "estat": "desapareguda", "data_edicio": "2026-01-23T23:15:21.073Z", "Tipus": "torre (port)", "Imatge": "https://carloscerda.es/wp-content/uploads/2023/10/3_Origen_3.jpg", "territori": "Mallorca", "descripcio": null, "link": "https://cronicodemallorca.cat/02101-2/", "visibilitat": true, "id_talaia": 87, "simbologia": "talaies - participen", "municipi": "Pollença", "horari_encesa": "matí i capvespre", "senyal": null }, "geometry": { "type": "Point", "coordinates": [ 3.057577245716943, 39.921325082734867 ] } },
{ "type": "Feature", "properties": { "fid": 87, "nom": "La Fortalesa", "estat": "molt bo", "data_edicio": "2026-01-23T23:17:36.872Z", "Tipus": "fortalesa", "Imatge": "https://estaticos-cdn.prensaiberica.es/clip/b3902806-7195-4610-b8ea-f5dad5508600_16-9-aspect-ratio_default_0.jpg", "territori": "Mallorca", "descripcio": null, "link": "https://pollensa.com/ca/descobrir-pollenca/llocs-dinteres/la-fortalesa", "visibilitat": true, "id_talaia": 88, "simbologia": "talaies - no participen", "municipi": "Pollença", "horari_encesa": "no participa", "senyal": null }, "geometry": { "type": "Point", "coordinates": [ 3.11017924805396, 39.903813342626101 ] } },
{ "type": "Feature", "properties": { "fid": 88, "nom": "Sa Penya Roja", "estat": "deteriorat", "data_edicio": "2026-01-23T23:18:47.264Z", "Tipus": "torre (port)", "Imatge": "https://s0.wklcdn.com/image_153/4601924/66671121/44006784Master.jpg", "territori": "Mallorca", "descripcio": null, "link": "https://www.xn--castillosdeespaa-lub.es/es/content/sa-penya-rotja", "visibilitat": true, "id_talaia": 89, "simbologia": "talaies - no participen", "municipi": "Alcúdia", "horari_encesa": "no participa", "senyal": null }, "geometry": { "type": "Point", "coordinates": [ 3.182680768520429, 39.879756664669991 ] } },
{ "type": "Feature", "properties": { "fid": 89, "nom": "Torre d'es Port de Sóller", "estat": "molt bo", "data_edicio": "2026-01-23T23:28:37.880Z", "Tipus": "torre (port)", "Imatge": "https://upload.wikimedia.org/wikipedia/commons/thumb/9/97/PORT_SOLLER-MAJORKA%2C_AB-253.jpg/1280px-PORT_SOLLER-MAJORKA%2C_AB-253.jpg", "territori": "Mallorca", "descripcio": null, "link": "https://ca.wikipedia.org/wiki/Castell_del_Port_de_S%C3%B3ller", "visibilitat": true, "id_talaia": 90, "simbologia": "talaies - no participen", "municipi": "Sóller", "horari_encesa": "no participa", "senyal": null }, "geometry": { "type": "Point", "coordinates": [ 2.69519981849761, 39.791100939126238 ] } },
{ "type": "Feature", "properties": { "fid": 90, "nom": "Torre d'es Port Nou", "estat": "molt bo", "data_edicio": "2026-01-23T19:57:39.211Z", "Tipus": "torre o talaia", "Imatge": null, "territori": "Mallorca", "descripcio": "La torre, clarament defensiva, pertany a una tipologia que es repeteix quatre vegades a Mallorca i presenta un disseny més refinat que les atalaies de senyals, resultat d’un pla constructiu unificat impulsat pel regne sota els Borbons. Segons Ribas de Pina, fou construïda el 1751 i el 1769 ja apareix com a Torre Nova de Son Servera, equipada amb tres canons (dos de 12 i un de 6), tres torrers i edificacions auxiliars per a cavalls, situada en terres de Bartomeu Viudó. El 1794 la torre mantenia tres canons, i cap al 1825 l’armament es reduïa a un canó de 12 i un de 6 de ferro.", "link": "https://www.xn--castillosdeespaa-lub.es/es/content/port-nou-torre-des", "visibilitat": true, "id_talaia": 91, "simbologia": "talaies - no participen", "municipi": "Son Servera", "horari_encesa": "no participa", "senyal": null }, "geometry": { "type": "Point", "coordinates": [ 3.396090399214459, 39.625890370617384 ] } },
{ "type": "Feature", "properties": { "fid": 91, "nom": "Castell de Porto Petro", "estat": "molt bo", "data_edicio": "2026-01-23T23:23:09.336Z", "Tipus": "torre (port)", "Imatge": "https://uh.gsstatic.es/sfAttachPlugin/getCachedContent/id/579235/width/730/height/500/crop/1", "territori": "Mallorca", "descripcio": "Torre, fortelasa o castell construït entre els anys 1627 i 1628 sobre\nuna torre més antiga, edificada segurament pels musulmans devers el segle XIII i que en el XVI ja estava en runes. És de planta rectangular de 10 m per 9,05 m i 13'25 m d'alçada. L'edifici tenia dues plantes, devuit\nespitlleres, dos matacans i quatre troneres per a quatre canons. Transmetia els focs de la torre d'en Beu de\nCala Figuera a la torre de Portocolom", "link": "https://www.xn--castillosdeespaa-lub.es/es/content/porto-petro-fortalesa-de", "visibilitat": true, "id_talaia": 92, "simbologia": "talaies - participen", "municipi": "Santanyí", "horari_encesa": "matí i capvespre", "senyal": null }, "geometry": { "type": "Point", "coordinates": [ 3.214325865110715, 39.356051021271306 ] } },
{ "type": "Feature", "properties": { "fid": 92, "nom": "Castellot de Santa Ponça", "estat": "molt bo", "data_edicio": "2026-01-23T23:33:49.248Z", "Tipus": "torre o talaia", "Imatge": "https://www.castillosnet.org//datos/baleares/calvia/calvia/castellot_de_santa_ponca//PM-CAS-046-1416001.jpg", "territori": "Mallorca", "descripcio": "Any de construcció: 1302. Va ser reforçada l'any 1588. Es creu que hi devia haver una torre de més antic a la mateixa ubicació. La torre que hi ha avui en dia data del segle XVIII.", "link": "https://ca.wikipedia.org/wiki/Castellot_de_Santa_Pon%C3%A7a", "visibilitat": true, "id_talaia": 93, "simbologia": "talaies - no participen", "municipi": "Calvià", "horari_encesa": "no participa", "senyal": null }, "geometry": { "type": "Point", "coordinates": [ 2.467883477031713, 39.519920584981499 ] } },
{ "type": "Feature", "properties": { "fid": 94, "nom": "Torre de Llebeig", "estat": "bo", "data_edicio": "2026-01-23T19:57:39.218Z", "Tipus": "torre (port)", "Imatge": "https://volare.volotea.com/wp-content/uploads/2025/09/shutterstock_2269967011.jpg", "territori": "Mallorca", "descripcio": null, "link": "https://ca.wikipedia.org/wiki/Torre_de_Llebeig", "visibilitat": true, "id_talaia": 95, "simbologia": "talaies - no participen", "municipi": "Andratx", "horari_encesa": "no participa", "senyal": null }, "geometry": { "type": "Point", "coordinates": [ 2.306938786648758, 39.573254590657484 ] } },
{ "type": "Feature", "properties": { "fid": 95, "nom": "Torre de Sant Felipet", "estat": "bo", "data_edicio": "2026-01-24T09:49:31.597Z", "Tipus": "torre (port)", "Imatge": "http://www.menorca.es/documents/Imatges/2610imgpub.jpg", "territori": "Menorca", "descripcio": null, "link": "https://ca.wikipedia.org/wiki/Torre_de_Sant_Felipet", "visibilitat": false, "id_talaia": 96, "simbologia": "talaies - no participen", "municipi": "Maó", "horari_encesa": "no participa", "senyal": null }, "geometry": { "type": "Point", "coordinates": [ 4.306500308661206, 39.87235770503267 ] } },
{ "type": "Feature", "properties": { "fid": 96, "nom": "Torre d'es Castellar", "estat": "molt bo", "data_edicio": "2026-01-24T09:49:31.598Z", "Tipus": "torre (port)", "Imatge": "http://www.menorca.es/documents/Imatges/2101imgpub.JPG", "territori": "Menorca", "descripcio": null, "link": "https://ca.wikipedia.org/wiki/Torre_des_Castellar", "visibilitat": false, "id_talaia": 98, "simbologia": "talaies - no participen", "municipi": "Ciutadella de Menorca", "horari_encesa": "no participa", "senyal": null }, "geometry": { "type": "Point", "coordinates": [ 3.831843943511138, 39.980378863141745 ] } },
{ "type": "Feature", "properties": { "fid": 97, "nom": "Torre del Ram", "estat": "bo", "data_edicio": "2026-01-24T09:49:31.599Z", "Tipus": "fortalesa", "Imatge": "https://patrimoniomm.wordpress.com/wp-content/uploads/2014/09/p1310388torredelram.jpg", "territori": "Menorca", "descripcio": null, "link": "https://patrimoniomm.wordpress.com/monumentos/torres-y-atalayas/torre-del-ram/", "visibilitat": false, "id_talaia": 99, "simbologia": "talaies - no participen", "municipi": "Ciutadella de Menorca", "horari_encesa": "no participa", "senyal": null }, "geometry": { "type": "Point", "coordinates": [ 3.809069521295723, 40.012115565383361 ] } },
{ "type": "Feature", "properties": { "fid": 98, "nom": "Torre d'Alcalfar", "estat": "bo", "data_edicio": "2026-01-24T09:49:31.600Z", "Tipus": "torre o talaia", "Imatge": "https://upload.wikimedia.org/wikipedia/commons/thumb/1/1f/Torre_d%27Alcalfar_Vell_%28Sant_Llu%C3%ADs%29_-_2.jpg/500px-Torre_d%27Alcalfar_Vell_%28Sant_Llu%C3%ADs%29_-_2.jpg", "territori": "Menorca", "descripcio": null, "link": "https://ca.wikipedia.org/wiki/Torre_d%E2%80%99Alcalfar", "visibilitat": false, "id_talaia": 100, "simbologia": "talaies - no participen", "municipi": "Sant Lluís", "horari_encesa": "no participa", "senyal": null }, "geometry": { "type": "Point", "coordinates": [ 4.296078297757322, 39.82515690148584 ] } },
{ "type": "Feature", "properties": { "fid": 99, "nom": "Torre de la Princesa", "estat": "bo", "data_edicio": "2026-01-24T09:49:31.602Z", "Tipus": "fortalesa", "Imatge": "https://upload.wikimedia.org/wikipedia/commons/thumb/f/f0/Fortelasa_de_Isabel_II%2C_Illes_Balears%2C_Spain_-_panoramio_%281%29.jpg/330px-Fortelasa_de_Isabel_II%2C_Illes_Balears%2C_Spain_-_panoramio_%281%29.jpg", "territori": "Menorca", "descripcio": "https://ca.wikipedia.org/wiki/Torre_de_la_Princesa", "link": "https://ca.wikipedia.org/wiki/Torre_de_la_Princesa", "visibilitat": false, "id_talaia": null, "simbologia": "talaies - no participen", "municipi": "Maó", "horari_encesa": "no participa", "senyal": null }, "geometry": { "type": "Point", "coordinates": [ 4.3158946, 39.878258099999989 ] } },
{ "type": "Feature", "properties": { "fid": 100, "nom": "Torre de Cala Teulera", "estat": "bo", "data_edicio": "2026-01-24T09:49:31.603Z", "Tipus": "torre o talaia", "Imatge": "https://upload.wikimedia.org/wikipedia/commons/thumb/d/da/Torre_de_la_Mola_%28Ma%C3%B3%29_-_1.jpg/1280px-Torre_de_la_Mola_%28Ma%C3%B3%29_-_1.jpg", "territori": "Menorca", "descripcio": "https://ca.wikipedia.org/wiki/Torre_de_Cala_Teulera", "link": "https://ca.wikipedia.org/wiki/Torre_de_Cala_Teulera", "visibilitat": false, "id_talaia": null, "simbologia": "talaies - no participen", "municipi": "Maó", "horari_encesa": "no participa", "senyal": null }, "geometry": { "type": "Point", "coordinates": [ 4.308094902172311, 39.876462569050759 ] } },
{ "type": "Feature", "properties": { "fid": 101, "nom": "Torre d'en Penjat", "estat": "regular", "data_edicio": "2026-01-24T09:49:31.605Z", "Tipus": "torre o talaia", "Imatge": "https://www.consorciomilitarmenorca.com/wp-content/uploads/2020/10/Torre_den_penjat_menorca_LR-6.jpg", "territori": "Menorca", "descripcio": null, "link": "https://ca.wikipedia.org/wiki/Torre_d%27en_Penjat", "visibilitat": false, "id_talaia": null, "simbologia": "talaies - no participen", "municipi": "es Castell", "horari_encesa": "no participa", "senyal": null }, "geometry": { "type": "Point", "coordinates": [ 4.3039036, 39.8593846 ] } },
{ "type": "Feature", "properties": { "fid": 102, "nom": "Torre de Sa Mesquida", "estat": "molt bo", "data_edicio": "2026-01-24T09:49:31.606Z", "Tipus": "torre o talaia", "Imatge": "https://upload.wikimedia.org/wikipedia/commons/e/e7/Torre_de_Cala_Mesquida_%28Ma%C3%B3%29_-_2.jpg", "territori": "Menorca", "descripcio": null, "link": "https://patrimoniomm.wordpress.com/monumentos/torres-y-atalayas/torre-de-sa-mesquida/", "visibilitat": false, "id_talaia": null, "simbologia": "talaies - no participen", "municipi": "Maó", "horari_encesa": "no participa", "senyal": null }, "geometry": { "type": "Point", "coordinates": [ 4.2864464, 39.9138633 ] } },
{ "type": "Feature", "properties": { "fid": 103, "nom": "Torre d'Addaia", "estat": "molt bo", "data_edicio": "2026-01-24T09:49:31.607Z", "Tipus": "torre o talaia", "Imatge": "https://upload.wikimedia.org/wikipedia/commons/thumb/e/ec/E08_Addaia%2C_torre_de_Cala_Mol%C3%AD.JPG/1280px-E08_Addaia%2C_torre_de_Cala_Mol%C3%AD.JPG", "territori": "Menorca", "descripcio": null, "link": "https://ca.wikipedia.org/wiki/Torre_de_Cala_Mol%C3%AD", "visibilitat": false, "id_talaia": null, "simbologia": "talaies - no participen", "municipi": "Es Mercadal", "horari_encesa": "no participa", "senyal": null }, "geometry": { "type": "Point", "coordinates": [ 4.2010118, 40.0120001 ] } },
{ "type": "Feature", "properties": { "fid": 104, "nom": "Torre de Sa Nitja", "estat": "molt deteriorat", "data_edicio": "2026-01-24T09:49:31.609Z", "Tipus": "torre o talaia", "Imatge": "https://upload.wikimedia.org/wikipedia/commons/thumb/7/78/Sanitja_tower.JPG/1198px-Sanitja_tower.JPG", "territori": "Menorca", "descripcio": null, "link": "https://www.menorca.es/ca/Torre_de_Sanitja/8467", "visibilitat": false, "id_talaia": null, "simbologia": "talaies - no participen", "municipi": "Es Mercadal", "horari_encesa": "no participa", "senyal": null }, "geometry": { "type": "Point", "coordinates": [ 4.0839554, 40.0734936 ] } },
{ "type": "Feature", "properties": { "fid": 105, "nom": "Talaia d'en Bajolí", "estat": "bo", "data_edicio": "2026-01-24T09:49:31.610Z", "Tipus": "torre o talaia", "Imatge": "https://blogger.googleusercontent.com/img/b/R29vZ2xl/AVvXsEhiwYN-i32M1FVqMIE9_JSyAa_sjLX2x7BLx1L5fSlwjc0daJLnKuxbV_jLsZ3IkkatYvMHGZMmTFjA4QjJYOzywDLk9BEeHv_oTeef43fjg0DmAnFaify6dQgvzcN0Hd9OGGrUBH7QmVk/s640/23737667_1709510055767578_6178119837002172796_o.jpg", "territori": "Menorca", "descripcio": null, "link": "https://ca.wikipedia.org/wiki/Torre_de_Bajol%C3%AD", "visibilitat": false, "id_talaia": null, "simbologia": "talaies - no participen", "municipi": "Ciutadella de Menorca", "horari_encesa": "no participa", "senyal": null }, "geometry": { "type": "Point", "coordinates": [ 3.8027319, 40.0139137 ] } },
{ "type": "Feature", "properties": { "fid": 106, "nom": "Talaia d'Artrutx", "estat": "molt deteriorat", "data_edicio": "2026-01-24T09:49:31.611Z", "Tipus": "torre o talaia", "Imatge": "https://www.camidecavalls.com/documents/documents/9208doc3.JPG", "territori": "Menorca", "descripcio": null, "link": "https://ca.wikipedia.org/wiki/Talaia_d%27Artrutx", "visibilitat": false, "id_talaia": null, "simbologia": "talaies - no participen", "municipi": "Ciutadella de Menorca", "horari_encesa": "no participa", "senyal": null }, "geometry": { "type": "Point", "coordinates": [ 3.909850367284631, 39.92973241476119 ] } },
{ "type": "Feature", "properties": { "fid": 107, "nom": "Torre de Son Ganxo", "estat": "molt bo", "data_edicio": "2026-01-24T09:49:31.612Z", "Tipus": "torre o talaia", "Imatge": "https://patrimoniomm.wordpress.com/wp-content/uploads/2012/06/p1020093.jpg", "territori": "Menorca", "descripcio": null, "link": "https://www.menorca.es/ca/Torre_de_Son_Ganxo/9804", "visibilitat": false, "id_talaia": null, "simbologia": "talaies - no participen", "municipi": "Sant Lluís", "horari_encesa": "no participa", "senyal": null }, "geometry": { "type": "Point", "coordinates": [ 4.2757093, 39.8110622 ] } },
{ "type": "Feature", "properties": { "fid": 137, "nom": "Castell de Capdepera", "estat": "bo", "data_edicio": "2026-01-24T00:04:25.079Z", "Tipus": "fortalesa", "Imatge": "https://upload.wikimedia.org/wikipedia/commons/thumb/5/52/CastelldeCapdepera.jpg/330px-CastelldeCapdepera.jpg", "territori": "Mallorca", "descripcio": null, "link": "https://www.capdeperacastell.com/", "visibilitat": false, "id_talaia": null, "simbologia": "talaies - participen", "municipi": "Capdepera", "horari_encesa": "matí i capvespre", "senyal": null }, "geometry": { "type": "Point", "coordinates": [ 3.4331771, 39.704774 ] } },
{ "type": "Feature", "properties": { "fid": 161, "nom": "Castell de Sant Antoni", "estat": "molt deteriorat", "data_edicio": "2026-01-24T00:14:17.527Z", "Tipus": "fortalesa", "Imatge": "https://upload.wikimedia.org/wikipedia/commons/a/a9/Fornells_-_Castell_de_Sant_Antoni.JPG", "territori": "Menorca", "descripcio": null, "link": "https://www.menorca.es/ca/Castell_de_Sant_Antoni/9797", "visibilitat": null, "id_talaia": null, "simbologia": "talaies - participen", "municipi": "Es Mercadal", "horari_encesa": "matí i capvespre", "senyal": null }, "geometry": { "type": "Point", "coordinates": [ 4.133085573606354, 40.05736360754868 ] } },
{ "type": "Feature", "properties": { "fid": 169, "nom": "Baluard de Sant Bernat", "estat": "bo", "data_edicio": "2026-01-24T00:08:34.129Z", "Tipus": "fortalesa", "Imatge": "https://upload.wikimedia.org/wikipedia/commons/0/06/ForbysIbizaTown_02.jpg", "territori": "Pitiüses", "descripcio": null, "link": null, "visibilitat": false, "id_talaia": null, "simbologia": "talaies - participen", "municipi": "Eivissa", "horari_encesa": "matí", "senyal": null }, "geometry": { "type": "Point", "coordinates": [ 1.436432252357712, 38.906007480815198 ] } },
{ "type": "Feature", "properties": { "fid": 170, "nom": "Torre de ca n'Espatleta", "estat": "molt bo", "data_edicio": "2026-01-24T00:07:48.580Z", "Tipus": "torre o talaia", "Imatge": "https://sa-torre.net/wp-content/uploads/2021/11/1-21.png", "territori": "Pitiüses", "descripcio": null, "link": "https://ca.wikipedia.org/wiki/Torre_de_Ca_n%27Espatleta", "visibilitat": false, "id_talaia": null, "simbologia": "talaies - no participen", "municipi": "Santa Eulària des Riu", "horari_encesa": "no participa", "senyal": null }, "geometry": { "type": "Point", "coordinates": [ 1.455807929399597, 38.923550393735283 ] } },
{ "type": "Feature", "properties": { "fid": 171, "nom": "Torre de l'església de Sant Antoni", "estat": "bo", "data_edicio": "2026-01-23T23:41:28.154Z", "Tipus": "fortalesa", "Imatge": null, "territori": "Pitiüses", "descripcio": null, "link": null, "visibilitat": false, "id_talaia": null, "simbologia": "talaies - no participen", "municipi": "Sant Antoni de Portmany", "horari_encesa": "no participa", "senyal": null }, "geometry": { "type": "Point", "coordinates": [ 1.304366536955673, 38.981111572812516 ] } },
{ "type": "Feature", "properties": { "fid": 172, "nom": "Torre de les Creus", "estat": null, "data_edicio": "2026-01-23T19:57:39.361Z", "Tipus": "torre o talaia", "Imatge": null, "territori": "País Valencià", "descripcio": null, "link": null, "visibilitat": null, "id_talaia": null, "simbologia": "talaies - participen", "municipi": "Cadaqués", "horari_encesa": "capvespre", "senyal": null }, "geometry": { "type": "Point", "coordinates": [ 3.280767222261618, 42.29031541287749 ] } },
{ "type": "Feature", "properties": { "fid": 173, "nom": "Castell de Montagut", "estat": null, "data_edicio": "2026-01-23T19:57:39.363Z", "Tipus": "fortalesa", "Imatge": null, "territori": "Catalunya", "descripcio": null, "link": null, "visibilitat": null, "id_talaia": null, "simbologia": "talaies - participen", "municipi": "Llagostera", "horari_encesa": "matí", "senyal": null }, "geometry": { "type": "Point", "coordinates": [ 2.9390076, 41.7660143 ] } },
{ "type": "Feature", "properties": { "fid": 174, "nom": "Torre de Can Ratés", "estat": null, "data_edicio": "2026-01-23T19:57:39.365Z", "Tipus": "torre o talaia", "Imatge": null, "territori": "Catalunya", "descripcio": null, "link": null, "visibilitat": null, "id_talaia": null, "simbologia": "talaies - participen", "municipi": "Santa Susanna", "horari_encesa": "matí i capvespre", "senyal": null }, "geometry": { "type": "Point", "coordinates": [ 2.708542908443669, 41.640281529772224 ] } },
{ "type": "Feature", "properties": { "fid": 175, "nom": "Torre de Can Valls", "estat": null, "data_edicio": "2026-01-23T19:57:39.367Z", "Tipus": "torre o talaia", "Imatge": null, "territori": "Catalunya", "descripcio": null, "link": null, "visibilitat": null, "id_talaia": null, "simbologia": "talaies - participen", "municipi": "Sant Vicenç de Montalt", "horari_encesa": "matí", "senyal": null }, "geometry": { "type": "Point", "coordinates": [ 2.51502597226995, 41.567572758723159 ] } },
{ "type": "Feature", "properties": { "fid": 176, "nom": "Torre d’en Nadal", "estat": null, "data_edicio": "2026-01-23T19:57:39.369Z", "Tipus": "torre o talaia", "Imatge": null, "territori": "Catalunya", "descripcio": null, "link": null, "visibilitat": null, "id_talaia": null, "simbologia": "talaies - participen", "municipi": "Vilassar de Mar", "horari_encesa": "matí", "senyal": null }, "geometry": { "type": "Point", "coordinates": [ 2.394505371057721, 41.503416937916725 ] } },
{ "type": "Feature", "properties": { "fid": 180, "nom": "Torre de Can Roca de Baix", "estat": null, "data_edicio": "2026-01-23T19:57:39.376Z", "Tipus": "torre o talaia", "Imatge": null, "territori": "Catalunya", "descripcio": null, "link": null, "visibilitat": null, "id_talaia": null, "simbologia": "talaies - participen", "municipi": "Castelldefels", "horari_encesa": "capvespre", "senyal": null }, "geometry": { "type": "Point", "coordinates": [ 1.977922496302655, 41.282407425753817 ] } },
{ "type": "Feature", "properties": { "fid": 181, "nom": "Castell de Santa Oliva", "estat": null, "data_edicio": "2026-01-23T19:57:39.378Z", "Tipus": "fortalesa", "Imatge": null, "territori": "Catalunya", "descripcio": null, "link": null, "visibilitat": null, "id_talaia": null, "simbologia": "talaies - participen", "municipi": "Santa Oliva", "horari_encesa": "capvespre", "senyal": null }, "geometry": { "type": "Point", "coordinates": [ 1.54941336822837, 41.253747823660937 ] } },
{ "type": "Feature", "properties": { "fid": 182, "nom": "Torre de les Bruixes", "estat": null, "data_edicio": "2026-01-23T19:57:39.380Z", "Tipus": "torre o talaia", "Imatge": null, "territori": "Catalunya", "descripcio": null, "link": null, "visibilitat": null, "id_talaia": null, "simbologia": "talaies - no participen", "municipi": "Sant Martí Sarroca", "horari_encesa": "no participa", "senyal": null }, "geometry": { "type": "Point", "coordinates": [ 1.624258027058745, 41.376315888474856 ] } },
{ "type": "Feature", "properties": { "fid": 183, "nom": "Castell de Sant Antoni d'Albinyana", "estat": null, "data_edicio": "2026-01-23T19:57:39.381Z", "Tipus": "fortalesa", "Imatge": null, "territori": "Catalunya", "descripcio": null, "link": null, "visibilitat": null, "id_talaia": null, "simbologia": "talaies - participen", "municipi": "Albinyana", "horari_encesa": "matí", "senyal": null }, "geometry": { "type": "Point", "coordinates": [ 1.475586385187219, 41.241292740598134 ] } },
{ "type": "Feature", "properties": { "fid": 184, "nom": "Castell de Rodonyà", "estat": null, "data_edicio": "2026-01-23T19:57:39.383Z", "Tipus": "fortalesa", "Imatge": null, "territori": "Catalunya", "descripcio": null, "link": null, "visibilitat": null, "id_talaia": null, "simbologia": "talaies - participen", "municipi": "Rodonyà", "horari_encesa": "capvespre", "senyal": null }, "geometry": { "type": "Point", "coordinates": [ 1.398706869457105, 41.27987939014519 ] } },
{ "type": "Feature", "properties": { "fid": 185, "nom": "Torre del Pretori", "estat": null, "data_edicio": "2026-01-23T19:57:39.385Z", "Tipus": "torre o talaia", "Imatge": null, "territori": "Catalunya", "descripcio": null, "link": null, "visibilitat": null, "id_talaia": null, "simbologia": "talaies - participen", "municipi": "Tarragona", "horari_encesa": "capvespre", "senyal": null }, "geometry": { "type": "Point", "coordinates": [ 1.258211213493426, 41.116894514359117 ] } },
{ "type": "Feature", "properties": { "fid": 186, "nom": "Torre de l'Homenatge del Castell de Verdú", "estat": null, "data_edicio": "2026-01-23T19:57:39.388Z", "Tipus": "torre o talaia", "Imatge": null, "territori": "Catalunya", "descripcio": null, "link": null, "visibilitat": null, "id_talaia": null, "simbologia": "talaies - participen", "municipi": "Verdú", "horari_encesa": "matí i capvespre", "senyal": null }, "geometry": { "type": "Point", "coordinates": [ 1.144015647512771, 41.611070313689446 ] } },
{ "type": "Feature", "properties": { "fid": 188, "nom": "Castell d’Orrit", "estat": null, "data_edicio": "2026-01-23T19:57:39.391Z", "Tipus": "fortalesa", "Imatge": null, "territori": "Catalunya", "descripcio": null, "link": null, "visibilitat": null, "id_talaia": null, "simbologia": "talaies - participen", "municipi": "Tremp", "horari_encesa": "matí i capvespre", "senyal": null }, "geometry": { "type": "Point", "coordinates": [ 0.742879266906977, 42.257045945852617 ] } },
{ "type": "Feature", "properties": { "fid": 189, "nom": "Castell d’Areny", "estat": null, "data_edicio": "2026-01-23T19:57:39.393Z", "Tipus": "fortalesa", "Imatge": null, "territori": "Aragó", "descripcio": null, "link": null, "visibilitat": null, "id_talaia": null, "simbologia": "talaies - participen", "municipi": "Arén", "horari_encesa": "matí i capvespre", "senyal": null }, "geometry": { "type": "Point", "coordinates": [ 0.722027803795651, 42.260022329739144 ] } },
{ "type": "Feature", "properties": { "fid": 190, "nom": "Castell de Montanyana", "estat": null, "data_edicio": "2026-01-23T19:57:39.395Z", "Tipus": "fortalesa", "Imatge": null, "territori": "Aragó", "descripcio": null, "link": null, "visibilitat": null, "id_talaia": null, "simbologia": "talaies - participen", "municipi": "Pont de Montanyana", "horari_encesa": "matí i capvespre", "senyal": null }, "geometry": { "type": "Point", "coordinates": [ 0.677007981948866, 42.162869834448585 ] } },
{ "type": "Feature", "properties": { "fid": 191, "nom": "Castell de Viacamp", "estat": null, "data_edicio": "2026-01-26T21:20:52.649Z", "Tipus": "fortalesa", "Imatge": null, "territori": "Aragó", "descripcio": null, "link": null, "visibilitat": null, "id_talaia": null, "simbologia": "talaies - participen", "municipi": "Viacamp i Lliterà", "horari_encesa": "matí i capvespre", "senyal": null }, "geometry": { "type": "Point", "coordinates": [ 0.614404584644413, 42.128790635962758 ] } },
{ "type": "Feature", "properties": { "fid": 192, "nom": "Castell de Lluçars", "estat": null, "data_edicio": "2026-01-23T19:57:39.398Z", "Tipus": "fortalesa", "Imatge": null, "territori": "Aragó", "descripcio": null, "link": null, "visibilitat": null, "id_talaia": null, "simbologia": "talaies - participen", "municipi": "Tolva", "horari_encesa": "matí i capvespre", "senyal": null }, "geometry": { "type": "Point", "coordinates": [ 0.576286613097169, 42.156307986242624 ] } },
{ "type": "Feature", "properties": { "fid": 193, "nom": "Castell dels Comtes de Ribagorça de Benavarri", "estat": null, "data_edicio": "2026-01-26T21:17:01.868Z", "Tipus": "fortalesa", "Imatge": null, "territori": "Aragó", "descripcio": null, "link": null, "visibilitat": null, "id_talaia": null, "simbologia": "talaies - participen", "municipi": "Benavarri", "horari_encesa": "matí i capvespre", "senyal": null }, "geometry": { "type": "Point", "coordinates": [ 0.481989297096143, 42.107227386849232 ] } },
{ "type": "Feature", "properties": { "fid": 195, "nom": "Castell de Sant Oïsme", "estat": null, "data_edicio": "2026-01-23T19:57:39.403Z", "Tipus": "fortalesa", "Imatge": null, "territori": "Catalunya", "descripcio": null, "link": null, "visibilitat": null, "id_talaia": null, "simbologia": "talaies - participen", "municipi": "Camarasa", "horari_encesa": "matí i capvespre", "senyal": null }, "geometry": { "type": "Point", "coordinates": [ 0.844756728899212, 41.997998638649612 ] } },
{ "type": "Feature", "properties": { "fid": 196, "nom": "Torre de Fontdepou", "estat": null, "data_edicio": "2026-01-23T19:57:39.405Z", "Tipus": "torre o talaia", "Imatge": null, "territori": "Catalunya", "descripcio": null, "link": null, "visibilitat": null, "id_talaia": null, "simbologia": "talaies - participen", "municipi": "Àger", "horari_encesa": "capvespre", "senyal": null }, "geometry": { "type": "Point", "coordinates": [ 0.755551458713679, 41.965489401449396 ] } },
{ "type": "Feature", "properties": { "fid": 197, "nom": "Torre dels Masos de Millà", "estat": null, "data_edicio": "2026-01-23T19:57:39.408Z", "Tipus": "torre o talaia", "Imatge": null, "territori": "Catalunya", "descripcio": null, "link": null, "visibilitat": null, "id_talaia": null, "simbologia": "talaies - participen", "municipi": "Àger", "horari_encesa": "capvespre", "senyal": null }, "geometry": { "type": "Point", "coordinates": [ 0.699536208818361, 41.961275158590809 ] } },
{ "type": "Feature", "properties": { "fid": 199, "nom": "Castell del Rei", "estat": null, "data_edicio": "2026-01-23T19:57:39.411Z", "Tipus": "fortalesa", "Imatge": null, "territori": "Catalunya", "descripcio": null, "link": null, "visibilitat": null, "id_talaia": null, "simbologia": "talaies - participen", "municipi": "Lleida", "horari_encesa": "matí i capvespre", "senyal": null }, "geometry": { "type": "Point", "coordinates": [ 0.625687465675845, 41.618512486266276 ] } },
{ "type": "Feature", "properties": { "fid": 200, "nom": "Castell de Gardeny", "estat": null, "data_edicio": "2026-01-23T19:57:39.413Z", "Tipus": "fortalesa", "Imatge": null, "territori": "Catalunya", "descripcio": null, "link": null, "visibilitat": null, "id_talaia": null, "simbologia": "talaies - participen", "municipi": "Lleida", "horari_encesa": "matí i capvespre", "senyal": null }, "geometry": { "type": "Point", "coordinates": [ 0.61495311250822, 41.608864517784632 ] } },
{ "type": "Feature", "properties": { "fid": 203, "nom": "Castell de Falset", "estat": null, "data_edicio": "2026-01-23T19:57:39.419Z", "Tipus": "fortalesa", "Imatge": null, "territori": "Catalunya", "descripcio": null, "link": null, "visibilitat": null, "id_talaia": null, "simbologia": "talaies - participen", "municipi": "Falset", "horari_encesa": "matí i capvespre", "senyal": null }, "geometry": { "type": "Point", "coordinates": [ 0.816580077834171, 41.14568046949109 ] } },
{ "type": "Feature", "properties": { "fid": 204, "nom": "Torre del Cèlio", "estat": null, "data_edicio": "2026-01-23T19:57:39.420Z", "Tipus": "torre o talaia", "Imatge": null, "territori": "Catalunya", "descripcio": null, "link": null, "visibilitat": null, "id_talaia": null, "simbologia": "talaies - participen", "municipi": "Tortosa", "horari_encesa": "capvespre", "senyal": null }, "geometry": { "type": "Point", "coordinates": [ 0.526267564769637, 40.818440470548502 ] } },
{ "type": "Feature", "properties": { "fid": 206, "nom": "Torre de Font de Quinto", "estat": null, "data_edicio": "2026-01-23T19:57:39.423Z", "Tipus": "torre o talaia", "Imatge": null, "territori": "Catalunya", "descripcio": null, "link": null, "visibilitat": null, "id_talaia": null, "simbologia": "talaies - participen", "municipi": "Tortosa", "horari_encesa": "matí", "senyal": null }, "geometry": { "type": "Point", "coordinates": [ 0.579173022813233, 40.746622876653817 ] } },
{ "type": "Feature", "properties": { "fid": 207, "nom": "Torre de la Carrova", "estat": null, "data_edicio": "2026-01-23T19:57:39.425Z", "Tipus": "torre o talaia", "Imatge": null, "territori": "Catalunya", "descripcio": null, "link": null, "visibilitat": null, "id_talaia": null, "simbologia": "talaies - participen", "municipi": "Amposta", "horari_encesa": "matí", "senyal": null }, "geometry": { "type": "Point", "coordinates": [ 0.561447460295332, 40.742974174358586 ] } },
{ "type": "Feature", "properties": { "fid": 208, "nom": "Torre Forcheron", "estat": null, "data_edicio": "2026-01-23T19:57:39.427Z", "Tipus": "torre o talaia", "Imatge": null, "territori": "Catalunya", "descripcio": null, "link": null, "visibilitat": null, "id_talaia": null, "simbologia": "talaies - participen", "municipi": "Amposta", "horari_encesa": "matí i capvespre", "senyal": null }, "geometry": { "type": "Point", "coordinates": [ 0.587295778848792, 40.668591712708604 ] } },
{ "type": "Feature", "properties": { "fid": 209, "nom": "Torre de la Guardiola", "estat": null, "data_edicio": "2026-01-23T19:57:39.429Z", "Tipus": "torre o talaia", "Imatge": null, "territori": "Catalunya", "descripcio": null, "link": null, "visibilitat": null, "id_talaia": null, "simbologia": "talaies - participen", "municipi": "La Ràpita", "horari_encesa": "matí i capvespre", "senyal": null }, "geometry": { "type": "Point", "coordinates": [ 0.585876740976208, 40.623630870854235 ] } },
{ "type": "Feature", "properties": { "fid": 210, "nom": "Torre del Moro I", "estat": null, "data_edicio": "2026-01-23T19:57:39.431Z", "Tipus": "torre o talaia", "Imatge": null, "territori": "Catalunya", "descripcio": null, "link": null, "visibilitat": null, "id_talaia": null, "simbologia": "talaies - participen", "municipi": "La Ràpita", "horari_encesa": "matí i capvespre", "senyal": null }, "geometry": { "type": "Point", "coordinates": [ 0.574823228835795, 40.617080020423145 ] } },
{ "type": "Feature", "properties": { "fid": 211, "nom": "Torre del Moro II", "estat": null, "data_edicio": "2026-01-23T19:57:39.433Z", "Tipus": "torre o talaia", "Imatge": null, "territori": "Catalunya", "descripcio": null, "link": null, "visibilitat": null, "id_talaia": null, "simbologia": "talaies - participen", "municipi": "Alcanar", "horari_encesa": "matí i capvespre", "senyal": null }, "geometry": { "type": "Point", "coordinates": [ 0.566468571164207, 40.616785553262091 ] } },
{ "type": "Feature", "properties": { "fid": 212, "nom": "Torre del Carrer Nou", "estat": null, "data_edicio": "2026-01-23T19:57:39.435Z", "Tipus": "torre o talaia", "Imatge": null, "territori": "Catalunya", "descripcio": null, "link": null, "visibilitat": null, "id_talaia": null, "simbologia": "talaies - participen", "municipi": "Alcanar", "horari_encesa": "matí i capvespre", "senyal": null }, "geometry": { "type": "Point", "coordinates": [ 0.482150583051652, 40.544146497013628 ] } },
{ "type": "Feature", "properties": { "fid": 213, "nom": "Torre medieval del Carrer Major", "estat": null, "data_edicio": "2026-01-23T19:57:39.437Z", "Tipus": "torre o talaia", "Imatge": null, "territori": "Catalunya", "descripcio": null, "link": null, "visibilitat": null, "id_talaia": null, "simbologia": "talaies - participen", "municipi": "La Sénia", "horari_encesa": "capvespre", "senyal": null }, "geometry": { "type": "Point", "coordinates": [ 0.278251914803029, 40.635429356373756 ] } },
{ "type": "Feature", "properties": { "fid": 215, "nom": "Muralla d'Ontinyent", "estat": null, "data_edicio": "2026-01-23T19:57:39.441Z", "Tipus": "fortalesa", "Imatge": null, "territori": "País Valencià", "descripcio": null, "link": null, "visibilitat": null, "id_talaia": null, "simbologia": "talaies - participen", "municipi": "Ontinyent", "horari_encesa": "matí i capvespre", "senyal": null }, "geometry": { "type": "Point", "coordinates": [ -0.610583762347154, 38.822712442964921 ] } },
{ "type": "Feature", "properties": { "fid": 217, "nom": "Sala del Consell de Dénia", "estat": null, "data_edicio": "2026-01-23T19:57:39.445Z", "Tipus": "fortalesa", "Imatge": null, "territori": "País Valencià", "descripcio": null, "link": null, "visibilitat": null, "id_talaia": null, "simbologia": "talaies - participen", "municipi": "Dénia", "horari_encesa": "matí i capvespre", "senyal": null }, "geometry": { "type": "Point", "coordinates": [ 0.105993093663128, 38.841667259279852 ] } },
{ "type": "Feature", "properties": { "fid": 219, "nom": "Castell de Moraire", "estat": "molt bo", "data_edicio": "2026-01-23T23:11:30.807Z", "Tipus": "fortalesa", "Imatge": null, "territori": "País Valencià", "descripcio": null, "link": null, "visibilitat": null, "id_talaia": null, "simbologia": "talaies - participen", "municipi": "Teulada", "horari_encesa": "matí i capvespre", "senyal": null }, "geometry": { "type": "Point", "coordinates": [ 0.13263271833746, 38.68677364168515 ] } },
{ "type": "Feature", "properties": { "fid": 220, "nom": "Castell de Medinacelli", "estat": null, "data_edicio": "2026-01-23T19:57:39.450Z", "Tipus": "fortalesa", "Imatge": null, "territori": "País Valencià", "descripcio": null, "link": null, "visibilitat": null, "id_talaia": null, "simbologia": "talaies - participen", "municipi": "el Verger", "horari_encesa": "matí i capvespre", "senyal": null }, "geometry": { "type": "Point", "coordinates": [ 0.010102839305088, 38.842990329705167 ] } },
{ "type": "Feature", "properties": { "fid": 221, "nom": "Castell de Guardamar", "estat": null, "data_edicio": "2026-01-23T19:57:39.452Z", "Tipus": "fortalesa", "Imatge": null, "territori": "País Valencià", "descripcio": null, "link": null, "visibilitat": null, "id_talaia": null, "simbologia": "talaies - participen", "municipi": "Guardamar del Segura", "horari_encesa": "matí i capvespre", "senyal": null }, "geometry": { "type": "Point", "coordinates": [ -0.657720657671588, 38.09187163040972 ] } },
{ "type": "Feature", "properties": { "fid": 222, "nom": "Torre del Almirante", "estat": "ruina total", "data_edicio": "2026-01-24T10:30:26.999Z", "Tipus": "torre (port)", "Imatge": null, "territori": "Andalucía", "descripcio": null, "link": null, "visibilitat": false, "id_talaia": null, "simbologia": "talaies - participen", "municipi": "Algeciras", "horari_encesa": "capvespre", "senyal": null }, "geometry": { "type": "Point", "coordinates": [ -5.445283223296796, 36.148844658944363 ] } },
{ "type": "Feature", "properties": { "fid": 226, "nom": "Torre del Pinet", "estat": "ruina total", "data_edicio": "2026-01-24T10:44:05.514Z", "Tipus": "torre o talaia", "Imatge": null, "territori": "País Valencià", "descripcio": null, "link": null, "visibilitat": null, "id_talaia": null, "simbologia": "talaies - participen", "municipi": null, "horari_encesa": "matí i capvespre", "senyal": null }, "geometry": { "type": "Point", "coordinates": [ -0.627286867106801, 38.154360442205032 ] } },
{ "type": "Feature", "properties": { "fid": 229, "nom": "Torre Colomera", "estat": "deteriorat", "data_edicio": "2026-01-24T10:30:29.825Z", "Tipus": "torre o talaia", "Imatge": null, "territori": "País Valencià", "descripcio": null, "link": null, "visibilitat": null, "id_talaia": null, "simbologia": "talaies - participen", "municipi": "Oropesa", "horari_encesa": "matí", "senyal": null }, "geometry": { "type": "Point", "coordinates": [ 0.10608797799233, 40.057095652659584 ] } }
]
}
